{"type": "FeatureCollection", "features": [{"type": "Feature", "geometry": {"type": "Point", "coordinates": [37.5499621, 47.0957648]}, "properties": {"decree": "170", "date": null, "beneficiary": "Специализированный застройщик «Строительное управление-2007»", "project": "Многоквартирный жилой дом со встроенными помещениями общественного назначения, расположенный по адресу: г. Мариуполь, пр. Металлургов. Литер «1", "addr": "территория, ограниченная проспектом Металлургов, улицей Кальчанской, улицей Артема, улицей Евпаторийской, улицей Греческой, улицей Митрополитской, улицей Фонтанной", "area_sqm": 6823.0, "cadastral": null, "conf": 0.1}}, {"type": "Feature", "geometry": {"type": "Point", "coordinates": [37.5499621, 47.0957648]}, "properties": {"decree": "171", "date": null, "beneficiary": "Специализированный застройщик «Строительное управление-2007»", "project": "Многоквартирный жилой дом со встроенными помещениями общественного назначения, расположенный по адресу: г. Мариуполь, пр. Металлургов. Литер «2", "addr": "территория, ограниченная проспектом Металлургов, улицей Кальчанской, улицей Артема, улицей Евпаторийской, улицей Греческой, улицей Митрополитской, улицей Фонтанной", "area_sqm": 7304.0, "cadastral": null, "conf": 0.1}}, {"type": "Feature", "geometry": {"type": "Point", "coordinates": [37.5499621, 47.0957648]}, "properties": {"decree": "172", "date": null, "beneficiary": "Специализированный застройщик «Строительное управление-2007»", "project": "Многоквартирный жилой дом со встроенными помещениями общественного назначения, расположенный по адресу: г. Мариуполь, пр. Металлургов. Литер «3", "addr": "территория, ограниченная проспектом Металлургов, улицей Кальчанской, улицей Артема, улицей Евпаторийской, улицей Греческой, ул", "area_sqm": 5975.0, "cadastral": null, "conf": 0.1}}, {"type": "Feature", "geometry": {"type": "Point", "coordinates": [37.5499621, 47.0957648]}, "properties": {"decree": "173", "date": null, "beneficiary": "Специализированный застройщик «Строительное управление-2007»", "project": "Многоквартирный жилой дом со встроенными помещениями общественного назначения, расположенный по адресу: г. Мариуполь, пр. Металлургов. Литер «22", "addr": "территория, ограниченная проспектом Металлургов, улицей Кальчанской, улицей Артема, улицей Евпаторийской, улицей Греческой, улицей Митрополитской, улицей Фонтанной", "area_sqm": 13617.0, "cadastral": null, "conf": 0.1}}, {"type": "Feature", "geometry": {"type": "Point", "coordinates": [37.5499621, 47.0957648]}, "properties": {"decree": "174", "date": null, "beneficiary": "Специализированный застройщик «Строительное управление-2007»", "project": "Многоквартирный жилой дом со встроенными помещениями общественного назначения, расположенный по адресу: г. Мариуполь, пр. Металлургов. Литер «23", "addr": "территория, ограниченная проспектом Металлургов, улицей Кальчанской, улицей Артема, улицей Евпаторийской, улицей Греческой, улицей Митрополитской, улицей Фонтанной", "area_sqm": 4547.0, "cadastral": null, "conf": 0.1}}, {"type": "Feature", "geometry": {"type": "Point", "coordinates": [37.5499621, 47.0957648]}, "properties": {"decree": "220", "date": null, "beneficiary": "Специализированный застройщик Солнечная", "project": "Солнечный квартал-2", "addr": "территория, ограниченная Володарским шоссе, улицей Солнечной, улицей Урицкого, улицей Гранитной, улицей 60 лет СССР, бульваром Шевченко", "area_sqm": 27567.0, "cadastral": null, "conf": 0.1}}, {"type": "Feature", "geometry": {"type": "Point", "coordinates": [37.5499621, 47.0957648]}, "properties": {"decree": "289", "date": "2023-09-07", "beneficiary": "Специализированный застройщик-1 «Порфир»", "project": "Многоквартирный жилой дом со встроенными помещениями по просп. Нахимова 82 в г. Мариуполь", "addr": "(территория ограничена проспектом Нахимова, улицей Черноморской, проспектом Строителей, улицей Кронштадтской)", "area_sqm": 3204.0, "cadastral": "93:37:0010410:173", "conf": 0.1}}, {"type": "Feature", "geometry": {"type": "Point", "coordinates": [37.5418217, 47.0871066]}, "properties": {"decree": "290", "date": "2023-09-07", "beneficiary": "Специализированный застройщик «Строительное управление-2007»", "project": "Многоквартирный жилой дом со встроенными помещениями общественного назначения, по адресу: г. Мариуполь, пр. Металлургов,", "addr": "город Мариуполь, Жовтневый район, проспект Металлургов, улица Кальчинская, улица Куинджи, улица Митрополитская, отнесенный к муниципальной собственности; категория земель - земли населенных пунктов, вид разрешенного использования - для жилой застройки для реализации масштабного инвестиционного проекта «Многоквартирный жилой дом со встроенными помещениями общественного назначения, по адресу: г", "area_sqm": 46622.0, "cadastral": "93:37:0010110:91", "conf": 0.5}}, {"type": "Feature", "geometry": {"type": "Point", "coordinates": [37.5499621, 47.0957648]}, "properties": {"decree": "291", "date": "2023-09-07", "beneficiary": "Специализированный застройщик «РКС-Девелопмент»", "project": "Дом с часами", "addr": "город Мариуполь, проспект Ленина (проспект Мира)/проспект Металлургов, отнесенный к муниципальной собственности; категория земель - земли населенных пунктов, вид разрешенного использования - для жилой застройки для реализации масштабного инвестиционного проекта «Дом с часами» (Соглашение о реализации масштабного инвестиционного проекта от 20 июля 2023 г", "area_sqm": 3501.0, "cadastral": "93:37:0010106:91+93:37:0010106:92+93:37:0010107:91", "conf": 0.1}}, {"type": "Feature", "geometry": {"type": "Point", "coordinates": [37.5499621, 47.0957648]}, "properties": {"decree": "77-6", "date": "2023-09-14", "beneficiary": "ДОМ.РФ» Срок реализации 2023-2030 Цель программы Улучшение качества предоставления жилищно- коммунальных услуг и создание условий для удовлетворения спроса населения на услуги в жилищно-коммунальной сфере Задачи программы Восстановление систем теплоснабжения, водоснабжения и водоотведения. Обновление основных фондов предприятий в сфере жилищно-коммунального хозяйства путем реконструкции, строительства (модернизации) капитального ремонта объектов коммунального хозяйства. Снижение риска возникновения аварийных ситуаций в системах теплоснабжения, водоснабжения и водоотведения. Повышение качества питьевого водоснабжения населению из централизованной системы водоснабжения. Приведение состояния многоквартирных домов в соответствие с требованиями нормативно-технических документов, снижение риска возникновения аварийных ситуаций при эксплуатации многоквартирных домов. Повышение комфортности городской среды, в том числе общественных пространств. Раздел 1. Общая характеристика, основные проблемы и прогноз развития сферы реализации программы Обеспечение граждан качественными и доступными жилищно-коммунальными услугами является одним из направлений достижения стратегической цели обеспечения национальной безопасности в области повышения качества жизни граждан Российской Федерации в соответствии со Стратегией развития строительной отрасли и жилищно-коммунального хозяйства Российской Федерации на период до 2030 года с прогнозом до 2035 года, утвержденной распоряжением Правительства Российской Федерации от 31 октября 2022 г. № 3268-р , указами Президента Российской Федерации от 7 мая 2018 г. № 204 «О национальных целях и стратегических задачах развития Российской Федерации на период до 2024 года » и от 21 июля 2020 г. № 474 «О национальных целях развития Российской Федерации на период до 2030 года» . Региональная программа комплексного развития и модернизации жилищно-коммунального хозяйства на территории Донецкой Народной Республики разработана в развитие программы социально-экономического развития Донецкой Народной Республики, Луганской Народной Республики, Запорожской области, Херсонской области, утвержденной распоряжением Правительства Российской Федерации от 21 апреля 2023 г. № 1019-р, и Программы комплексного развития и модернизации жилищно-коммунального хозяйства на территории Донецкой Народной Республики, Луганской Народной Республики, Запорожской области, Херсонской области, утвержденной протоколом от 10 июня 2023 года № 47 коллегиального органа, образованного распоряжением Правительства Российской Федерации от 18 марта 2022 г. № 542-р. Развитие жилищной, коммунальной и инженерной инфраструктуры Донецкой Народной Республики определено в программе через следующие приоритетные направления: эксплуатация жилищного фонда; коммунальное хозяйство; формирование комфортной городской среды. Программа содержит мероприятия по восстановлению и развитию жилищной и коммунальной инфраструктуры Донецкой Народной Республики с указанием сроков реализации и источников финансирования с целью достижения среднероссийских значений индикаторов, входящих в показатель уровня обеспеченности населения доступными и качественными услугами жилищно-коммунального хозяйства в срок до 2030 года. Для функционирования инфраструктуры жилищно-коммунального хозяйства и обеспечения развития жилищного строительства и промышленного потенциала Донецкой Народной Республики требуется восстановление разрушенных коммунальных систем путем осуществления нового строительства, реконструкции и капитального ремонта, в том числе в соответствии с мероприятиями Программы социально-экономического развития Донецкой Народной Республики, утвержденной постановлением Правительства Донецкой Народной Республики от 28 апреля 2023 г. № 29-1. Уровень обеспеченности жилищно-коммунальными услугами в целом характеризуется как низкий, основными факторами влияния являются: боевые действия, из-за которых услуги не оказываются на территориях, и значительный объем заминированных территорий, временно делающих невозможным ремонт и восстановление инфраструктуры; изношенность жилищного фонда; критический износ коммунальных систем, время строительства которых приходилось на советский период; дефицит кадров, в том числе вследствие сложной демографической ситуации; незавершенность интеграции в экономическую, финансовую, кредитную и правовую системы Российской Федерации, а также систему органов государственной власти. В части жилищного фонда Жилищный фонд в Донецкой Народной Республике составляет 28 703 жилых домов общей площадью 38,21 млн кв. м. Большая часть объектов жилищного фонда, расположенного на территории Донецкой Народной Республики построена преимущественно в период с 1950 по 1995 годы, при этом в них не проводился капитальный ремонт общего имущества в многоквартирных домах на системной основе. Жилищный фонд находится в изношенном состоянии, и значительная часть конструктивных элементов и инженерных систем требуют капитального ремонта или замены. Многоквартирный жилой фонд не имеет единой базы учета, на некоторые дома не имеется техническая документация и инвентарные данные. Отсутствие технической документации на многоквартирные дома не позволяет определить первоочередные задачи по капитальному и текущему ремонту зданий. По состоянию на 28 июля 2023 г. в жилом фонде ДНР насчитывается 7614 лифтов, из них 6986 выработали нормативный срок эксплуатации 25 лет, в том числе 2528 — требуют полной замены (из них 1889 лифтов — неработающие). Отсутствие единого подхода к организации содержания и текущей эксплуатации многоквартирных жилых домов на территории Донецкой Народной Республики наряду с отсутствием единого стандарта управления имуществом собственников в многоквартирных домах не позволяет гарантировать потребителям эксплуатацию и обслуживание внутридомовых инженерных систем и своевременный капитальный и текущий ремонт, а также содержание жилого фонда в нормативном состоянии. В части модернизации коммунальной инфраструктуры Теплоснабжение Теплоснабжение потребителей Донецкой Народной Республики осуществляется от двух теплоэлектростанций (Старобешевская ТЭС, Зуевская ТЭЦ) и одной теплоцентралью (Зуевская экспериментальная теплоэлектроцентраль), а также от 1277 единиц котельных, в том числе: 1042 котельные ГУП ДНР «Донбасстеплоэнерго» общей суммарной мощностью 6863,5 Гкал/час, работающие на природном газе (780 котельных), твердом топливе (229 котельных), жидком топливе (4 котельные), электрической энергии (29 котельных); 142 муниципальные котельные общей суммарной мощностью 24,9 Гкал/час, работающие на природном газе (28 котельных), твердом топливе (88 котельных), электрической энергии (26 котельных); 6 котельных общей суммарной мощностью 33,69 Гкал/час ТК «Железные дороги Донбасса», которые отапливают производственные помещения, а также 43 объекта жилищного фонда и 5 объектов социальной сферы, в том числе 1 детский сад, 2 школы, 1 учреждение высшего образования, 1 дом культуры; 4 котельные общей суммарной мощностью 9,4 Гкал/час, работающие на природном газе (3 котельные) и твердом топливе (1 котельная), которые отапливают здания Министерства образования и науки Донецкой Народной Республики (1 колледж, 1 училище, 2 котельные отапливают здания учреждения высшего образования); 5 котельных общей суммарной мощностью 1,137 Гкал/час, работающие на природном газе (3 котельные) и твердом топливе (2 котельные), которые отапливают здания Министерства здравоохранения Донецкой Народной Республики (3 учреждения СЭС, Республиканскую базу специального медицинского снабжения и Городской наркологический диспансер); 2 котельные общей суммарной мощностью 2,69 Гкал/час, которые отапливают здания Министерства культуры Донецкой Народной Республики (склад декораций и центр культуры); 76 котельных (крышные или индивидуальные котельные ЖСК, ОСМД, производственно-отопительные котельные промышленных предприятий и котельные прочих государственных учреждений) суммарной мощностью 183 Гкал/час, работающие на природном газе (48 котельных), твердом топливе (27 котельных), электрической энергии (1 котельная). В Донецкой Народной Республике только в городе Донецке имеется централизованное горячее водоснабжение. Количество МКД с централизованным горячим водоснабжением составляет 1488 ед. Общая протяженность тепловых сетей в двухтрубном исчислении составляет 2 073,752 км. Система теплоснабжения Донецкой Народной Республики характеризуется высокой степенью износа основных фондов, устаревшими технологиями, низкими темпами технического перевооружения и замены сетей. Кроме того, в городах Мариуполь, Волноваха, Светлодарск и пгт Мироновское в ходе боевых действий отдельные системы теплоснабжения были полностью разрушены и требуют их полного восстановления путем нового строительства или реконструкции. Доля населения, обеспеченного качественным теплоснабжением, также. определяется как «низкая» и составляет менее 70 %. При этом в отдельных муниципальных образованиях централизованное теплоснабжение многоквартирных домов отсутствует. Водоснабжение С начала 1950-х годов водоснабжение потребителей Донецкой Народной Республики осуществлялось от реки Северский Донец по каналу Северский Донец-Донбасс (далее — СДД) протяженностью 132,2 км до города Донецка и далее по Южно-Донбасскому водоводу до г. Мариуполя, при этом производился подъем воды на высоту 250 метров (ввиду разницы высот по рельефу местности) насосными станциями 6-ти подъемов, от которых зависит надежность и эффективность функционирования системы водоснабжения всего региона. Канал СДД являлся главным источником подачи воды для использования в качестве питьевого водоснабжения населения и обеспечения технической водой промышленных предприятий на территории Донецкой Народной Республики. В ходе боевых действий, совершенными вооруженными силами Украины, 25 февраля 2022 года было нарушено электроснабжение насосной станции 3-го подъема канала СДД и прекращена подача воды по каналу СДД на территорию Донецкой Народной Республики. В этой связи сложилась критическая ситуация с водоснабжением крупных городов Донецк, Макеевка, Горловка, Ясиноватая и пгт Пантелеймоновка. Отсутствие в течение длительного времени необходимых инвестиций в систему водоснабжения Донецкой Народной Республики, исчерпания ресурса эксплуатации гидротехнических сооружений канала СДД, магистральных водоводов и муниципальных сетей водоснабжения, ведет к прогрессирующей тенденции снижения качества услуг, предоставляемых потребителям. В настоящее время ситуация по обеспечению водоснабжением потребителей Донецкой Народной Республики остается нестабильной, имеет место подачи воды «по графику», аварийные отключения воды и увеличение количества утечек и срока их ликвидации. Структура расходов ресурсоснабжающих организаций, в том числе организации ГУП ДНР «ВОДА ДОНБАССА», которая предоставляет услуги водоснабжения более 80% от общего количества потребителей, имеет характерно высокие энергозатраты и трудозатраты. Тарифная выручка предприятий не обеспечивает покрытие основных производственных расходов для обеспечения производства коммунальных услуг, а также не имеют возможности проводить работы по развитию систем водоснабжения и осуществлять необходимые капиталовложения для восстановления изношенных водопроводных сетей, что приводит к значительным потерям питьевой воды и росту операционных расходов предприятий. Согласно информации Главного управления статистики Донецкой Народной Республики, общая численность населения Донецкой Народной Республики по состоянию на 1 марта 2022 года составляет 2,2 млн человек. Доля городского населения, подключенного к централизованным системам водоснабжения в Донецкой Народной Республике, составляет порядка 95% от общей численности населения Республики. Доля населения, обеспеченного качественной питьевой водой, в том числе из централизованной системы водоснабжения определяется как «высокая» и составляет более 70 %. Протяженность сетей водоснабжения на территории Донецкой Народной Республики составляет 13601,147 км, уровень показателя степени износа сетей составляет более 80 %. Водоотведение Централизованная система водоотведения имеется в 20 городах и районах Донецкой Народной Республики. Общее количество очистных сооружений составляет — 44, в разрезе населенных пунктов приведено в таблице. № п/п Наименование населенного пункта Производительная мощность, тыс.куб.м/сут. 1 г. Донецк 475 2 г. Горловка 96,1 3 г. Дебальцево 10 4 г. Докучаевск 10,3 5 г. Енакиево 66,4 6 г. Кировское, г. Ждановка 28,8 7 г. Макеевка 109,4 8 г. Мариуполь 10 9 г. Снежное 16,7 10 г. Торез 32,7 11 г. Харцызск 57,3 12 г. Иловайск 7 13 г. Шахтерск 20,2 14 г. Ясиноватая 15,8 15 г. Зугрэс 7 16 Амвросиевский р-н 11,9 17 Новоазовский р-н 7 18 Старобешевский р-н 2,5 19 Тельмановский р-н 0,7 Протяженность сетей водоотведения составляет 4 755,299 км, показатель уровня износа сетей составляет более 71%. Доля населения обеспеченного централизованной системой водоотведения определяется как «высокая» и составляет более 80%. Информация о протяженности инженерных сетей на территории Донецкой Народной Республики в разрезе населенных пунктов: Наименование населенного пункта Общая протяженность инженерных сетей В том числе протяженность сетей, км: теплоснабжения водоснабжения водоотведения 1 г. Горловка 2029,165 208,318 1314,602 506,245 2 г. Донецк 5706,48 835,114 3452,702 1418,664 3 г. Дебальцево 206,424 21,144 123,71 61,57 4 г. Докучаевск 251,048 12,634 190,614 47,8 5 г. Енакиево 1376,774 100,065 1035,938 240,771 6 г. Углегорск 111,881 7,447 74,623 29,811 7 г. Ждановка 84,849 18,442 44,707 21,7 8 г. Кировское 143,408 23,108 49,5 70,8 9 г. Макеевка 2423,078 206,346 1590,264 626,468 10 г. Мариуполь 2938,135 260,44 1972,07 705,625 11 г. Снежное 783,085 24,234 645,351 113,5 12 г. Торез 817,26 29,802 655,358 132,1 13 г. Харцызск 381,221 59,15 186,232 135,839 14 г. Зугрэс 165,665 23,327 96,01 46,328 15 г. Иловайск 146,604 13,437 105,267 27,9 16 г. Шахтерск 640,28 69,493 421,937 148,85 17 г. Ясиноватая 282,271 39,215 152,502 90,554 18 Амвросиевский р-н 206,702 17,667 163,613 25,422 19 Волновахский р-н 524,505 37,034 365,67 121,801 20 Володарский р-н 142,5 0 142,5 0 21 Новоазовский р-н 204,864 9,847 186,929 8,088 22 Першотравневый р-н 252,405 2,405 220 30 23 Старобешевский р-н 362,564 44,682 229,1 88,782 24 Тельмановский р-н 187,755 10,401 150,404 26,95 25 г. Светлодарск 61,275 0 31,544 29,731 Всего: 20430,198 2073,752 13601,147 4755,299 Длительная эксплуатация, недостаточность финансовых средств на содержание и обслуживание привело к серьезному моральному и физическому износу объектов водоснабжения и водоотведения, что в свою очередь влечет за собой уменьшение надежности систем, увеличение времени на устранение аварийных ситуаций на сетях водоснабжения и водоотведения, и как следствие ухудшение качества предоставляемых услуг централизованного водоснабжения и водоотведения населению Донецкой Народной Республики. В настоящее время большая часть основных фондов теплоснабжения, водоснабжения и водоотведения отработали свой нормативный срок эксплуатации и требуют проведения модернизации, реконструкции с применением новых энергоэффективных технологий и материалов. Часть муниципальных образований Донецкой Народной Республики определяется в соответствии с постановлением Правительства Российской Федерации от 28 декабря 2022 года № 2459 «Об особенностях применения законодательства Российской Федерации о государственном регулировании цен (тарифов) в сферах теплоснабжения, водоснабжения и водоотведения, обращения с твердыми коммунальными отходами на территориях, Донецкой Народной Республики, Луганской Народной Республики, Запорожской области и Херсонской области» зоной, освобожденной от оплаты за коммунальные услуги по причине невозможности их предоставления. В связи с чем взимание платы с населения за коммунальные услуги не производится. Программой предусмотрены мероприятия по приведению к нормативному состоянию объектов коммунальной инфраструктуры, путем выполнения их модернизации, реконструкции, строительства. Также Программой предусмотрены механизмы реализации, источники финансирования и мероприятия, предусматривающие эффективное управление финансовой хозяйственной деятельностью организаций путем их консолидации в состав единых ресурсоснабжающих организаций в сферах теплоснабжения, водоснабжения и водоотведения. Тарифная политика в сфере коммунальных услуг Тарифы на коммунальные услуги по состоянию на 01.07.2023, включая их собираемость (население) Вид услуги Тариф на 01.07.2023 (с НДС) Ед. измерения I полугодие 2023 года Начислено Собрано Уровень собираемости руб. — млн руб. млн руб. % Водоснабжение 30,02 2,9 2,7 94,5* Водоотведение 13,93 Теплоснабжение 1392,40 Гкал 2895,1 2088,6 72,1 * — высокий уровень собираемости обусловлен отсутствием начисления платы за услуги, в связи с безоплатной подачей воды населению в большинстве населенных пунктов Республики, и поступлением средств в счет погашения задолженности в размере, превышающем начисление (согласно Протокола заседания рабочей группы по реализации специального инфраструктурного проекта от 25 января 2023 г. № 4). Тарифы на коммунальные услуги по состоянию на 01.07.2023, включая их собираемость (бюджетная сфера) Вид услуги Тариф на 01.07.2023 (без НДС) Ед. измерения I полугодие 2023 года Начислено Собрано Уровень собираемости руб- — млн руб. млн руб. % Водоснабжение 25,02 м 3 40,4 26,9 66,7 Водоотведение 14,30 M J Теплоснабжение 3671,50 Гкал 1850,2 1309,1 70,8 Тарифы на коммунальные услуги по состоянию на 01.07.2023, включая их собираемость (прочие потребители) Вид услуги Тариф на 01.07.2023 (без НДС) Ед. измерения I полугодие 2023 года Начислено Собрано Уровень собираемости руб. — млн руб. млн руб. % Водоснабжение 25,02 м 3 276,7 480,1 173,5 Водоотведение 14,30 м 3 Теплоснабжение 3671,50 Гкал 291,4 220,0 75,6 Общий уровень оплаты коммунальных услуг потребителями всех категорий за январь-июнь т. г. составил 79,1 %, из них: организациями бюджетной сферы 70,7 % (начислено 1 909,8 млн руб., оплачено 1 350,8 млн руб.); населением 77 % (начислено 4 543,7 млн руб., оплачено 3 497,6 млн руб.); прочими потребителями 117,2 % (начислено 670,2 млн руб., оплачено 785,7 млн руб.). В части комфортной городской среды Большая часть общественных территорий требует восстановления и санитарной очистки. При этом климатические особенности региона в целом характеризуются как комфортные для проживания, что делает возможным создание современных парковых зон для формирования современной городской среды. В сфере благоустройства необходимы новые подходы к формированию мероприятий по созданию благоприятной городской среды, интеграция процессов управления формированием проектов в соответствии с действующей общероссийской практикой. Финансирование мероприятий обеспечивается за счет предоставления субсидий и иных межбюджетных трансфертов из федерального бюджета бюджету Донецкой Народной Республики, региональных бюджетов, внебюджетных средств, специальных казначейских кредитов. Строительство (реконструкция) инфраструктурных объектов осуществляется в соответствии с поручениями Президента Российской Федерации, Правительства Российской Федерации, решениями, отраженными в федеральном законе о федеральном бюджете на соответствующий финансовый год и плановый период, после реализации программы развитие инфраструктуры продолжится во исполнение требований действующего законодательства Российской Федерации. Правила предоставления субсидий на содействие развитию коммунальной и инженерной инфраструктуры государственной (муниципальной) собственности Донецкой Народной Республики и иных межбюджетных трансфертов на реализацию мероприятий по содействию развития инфраструктуры утверждаются Правительством Российской Федерации. В целях преодоления последствий кризисных явлений, а также поэтапного доведения технико-экономических показателей в сфере жилищно-коммунального хозяйства до сопоставимого уровня в смежных субъектах Российской Федерации сформулированы основные показатели программы: инвентаризация многоквартирных домов; формирование видов работ, реализация планов по капитальному ремонту многоквартирных домов; формирование видов работ по текущему ремонту и содержания жилья; темпы замены сетей водоснабжения, водоотведения, теплоснабжения; количество построенных, реконструированных, модернизированных и капитально отремонтированных объектов водоснабжения, водоотведения, теплоснабжения; доведение тарифов до уровня, установленного планом поэтапного повышения цен (тарифов) на коммунальные услуги, утверждённым коллегиальным органом, образованным Правительством Российской Федерации; количество благоустроенных территорий. Целевые показатели Программы, характеризующие результаты ее реализации по годам, приведены в приложении № 1 к Программе. План мероприятий для достижения целей и решения задач Программа приведен в приложении № 2 к Программе. Информация о финансовом обеспечении реализации Программы приведена в приложении № 3 к Программе. Раздел 2. Описание ожидаемых результатов реализации Программы Реализация программы в период с 2023-2030 годы приведет к повышению уровня жизни граждан на территории Донецкой Народной Республики, посредством достижения следующих результатов: создание условий для преодоления последствий кризисных явлений и их влияния на функционирование жилищно-коммунального хозяйства как основы для восстановления экономики, обеспечения развития жилищного строительства и промышленного потенциала; повышение доли охвата населения жилищно-коммунальными услугами и повышение качества и доступности жилищно-коммунальных услуг; улучшение качества городской среды; восстановление отраслевого хозяйства в сфере теплоснабжения и водоснабжения, эксплуатации жилого фонда и формирование высокотехнологичных отраслей жилищно-коммунального хозяйства; снижение аварийности на системах теплоснабжения, водоснабжения и водоотведения; снижение потерь, поставляемых ресурсов, на системах теплоснабжения, водоснабжения и водоотведения. Основными задачами Программы являются: восстановление систем теплоснабжения, водоснабжения и водоотведения; обновление основных фондов предприятий в сфере жилищно-коммунального хозяйства путем реконструкции, строительства (модернизации) и капитального ремонта объектов; снижение риска возникновения аварийных ситуаций в системах теплоснабжения, водоснабжения и водоотведения; повышение качества питьевого водоснабжения из централизованной системы водоснабжения; приведение в соответствие сведений о техническом состоянии многоквартирного жилищного фонда; повышение комфортности городской среды, в том числе общественных пространств. I. Эксплуатация жилищного фонда В качестве основы для планирования мероприятий по ремонту многоквартирного жилищного фонда программой определено проведение инвентаризации многоквартирных домов на территории Донецкой Народной Республики в III квартале 2023 года и их паспортизации до 2030 года. Формирование и утверждение перечня видов работ по капитальному ремонту общего имущества в многоквартирных жилых домах, формирование и утверждение краткосрочного плана ее реализации до 2030 года позволят определить размер взноса на капитальный ремонт с последовательным доведением до релевантного среднероссийского уровня в течение срока реализации программы. Проведение капитального ремонта в многоквартирных домах, наряду с текущим ремонтом и содержанием, является приоритетным социально значимым фактором. В целях повышения управляемости процессами управления многоквартирными домами, текущего и капитального ремонта, а также содержания в надлежащем состоянии общего имущества в многоквартирных домах в Донецкой Народной Республике планируется создание Единой региональной организации в сфере управления многоквартирными домами, содержания и текущего ремонта, а также капитального ремонта общего имущества в многоквартирных домах. Внедрение единого стандарта управления многоквартирными домами, поэтапный переход к нормам жилищного законодательства Российской Федерации окажет положительное влияние на восприятие населением жилищной политики государства. Прозрачный механизм в сфере планирования мероприятий по сохранению и приведению в нормативное состояние общего имущества в многоквартирных домах, внедрение института заказчиков работ и услуг для многоквартирных домов, предусмотренные Стратегией развития строительной отрасли и жилищно-коммунального хозяйства Российской Федерации на период до 2030 года с прогнозом до 2035 года, утвержденной распоряжением Правительства Российской Федерации от 31 октября 2022 г. № 3268-р , будут внедряться на территории Донецкой Народной Республики в качестве пилотного проекта. В целях оснащения жилищного фонда интеллектуальными системами учета потребляемых коммунальных услуг и ресурсов программой запланированы мероприятия по установке приборов учета коммунальных услуг. Все мероприятия направлены на планомерное повышение значения показателя степени благоустройства жилых помещений, используемого для расчета комплексного показателя, в целях доведения уровня обеспеченности населения доступными и качественными услугами жилищно-коммунального хозяйства к 2030 году до среднероссийских показателей качества жизни граждан Российской Федерации и общероссийского уровня социально-экономического развития. Капитальный ремонт многоквартирных домов в городах и районах Донецкой Народной Республики, выполняемый шеф-регионами Шеф-регион АТЕДНР Количество МКД, ед. 2023 2024 2025 Кемеровская область — Кузбасс Город Г орловка 120 124 Ямало-Ненецкий автономный округ Волновахский район 6 50 88 Челябинская область 2 1 Город Ясиноватая 5 5 Город Москва Город Донецк 225 Камчатский край Город Дебальцево 2 2 Чукотский автономный округ 1 1 Ленинградская область Город Енакиево 7 5 7 Республика Саха (Якутия) Город Кировское 2 26 27 Свердловская область Город Макеевка 31 ХМАО-Югра 62 17 42 Город Санкт- Петербург Город Мариуполь 10 4 Тульская область 16 15 9 Самарская область Город Снежное 9 6 6 Приморский край Город Торез 6 6 Нижегородская область Город Харцызск 18 Сахалинская область Город Шахтерск 44 40 Владимирская область Город Докучаевск 18 10 8 Амурская область Амвросиевский район 23 23 Еврейская автономная область 11 И Московская область Новоазовский район 7 2 19 Тельмановский район 28 11 12 Курская область Першотравневый район 20 8 16 Республика Бурятия Старобешевский район 5 5 4 ВСЕГО 466 372 450 В 2023 году запланирована полная замена 150 лифтов, финансирование которых предусмотрено за счет средств АО «ДОМ.РФ». II. Модернизация коммунальной инфраструктуры Единые отраслевые схемы ставят задачу сквозной интеграции отраслевых программ развития в сфере строительства и энергетики, в том числе включают планы развития Донецкой Народной Республики с учетом комплексного развития и подключением объектов на весь цикл планируемой застройки. Реализация мероприятий Программы осуществляется посредством проведения закупочных процедур товаров, работ, услуг для государственных нужд Донецкой Народной Республики в порядке, определенном законодательством Российской Федерации, осуществления бюджетных инвестиций и предоставления бюджетных субсидий, в том числе привлечения внебюджетных источников финансирования, на основе государственных контрактов на приобретение товаров (оказание услуг, выполнение работ) для государственных нужд, заключаемых соисполнителями Программы с поставщиками (подрядчиками, застройщиками) определенными в установленном законодательством Российской Федерации порядке, а также на основе соглашений о софинансировании и реализации ее мероприятий. Ежегодно будет проводиться корректировка перечня мероприятий Программы на очередной финансовый год и плановый период с уточнением затрат по ее мероприятиям в соответствии с мониторингом фактически достигнутых целевых показателей Программы. В целях эффективной реализации Программы часть функций по исполнению ее мероприятий передается соисполнителям Программы подведомственным получателям бюджетных средств, учреждениям по ведомственной принадлежности в соответствии с государственным заданием на оказание государственных услуг (выполнение работ) или предоставленными субсидиями на иные цели, а также унитарным предприятиям сферах теплоснабжения, водоснабжения и водоотведения. В период с 2023 по 2025 годы предусмотрено финансирование Программы в общем объеме 38,75 млрд рублей, в том числе: В рамках реализации механизма по финансированию мероприятий за счет Специальных казначейских кредитов установлен лимит в размере 11,5 млрд рублей, что позволит выполнить следующие работы: по реконструкции (модернизации) 76 объектов теплоснабжения, 2 объектов водоснабжения и водоотведения, по капитальному ремонту 48 км сетей теплоснабжения, 79,5 км сетей водоснабжения и водоотведения; по разработке единых схем теплоснабжения, водоснабжения и водоотведения, что позволит определить эффективность работы действующих систем теплоснабжения, водоснабжения и водоотведения, а также сформировать приоритетность дальнейшего развития коммунальной инфраструктуры Донецкой Народной Республики с учетом комплексного развития территории. В рамках реализации мероприятий «Разработка проектно-сметной документации, строительство, реконструкция (модернизация) и капитальный ремонт объектов питьевого водоснабжения» запланировано выполнение работ по реконструкции подземного источника и системы водоснабжения пос. Холодная Балка г. Макеевки с целью доведения качества подаваемой населению воды до требований питьевой, реконструкции подземного водозабора в г. Комсомольское (бурение скважины на площадке водозабора), а также работы по реконструкции водозаборных сооружений и расчистке Ольховского водохранилища и утилизации иловых отложений. В условиях проведения боевых действий централизованная система водоснабжения ГУП ДЫР «ВОДА ДОНБАССА» на протяжении 2022-2023 годов частично не функционирует из-за остановки основного источника — канала СДД и, соответственно, Южно-Донбасского водопровода. В результате территория Донецкой Народной Республики, которая по климатическим условиям является маловодным регионом, испытывает острый дефицит в воде и особо важное значение приобрели подземные источники централизованного водоснабжения и резервные водохранилища. Эксплуатирующийся в настоящее время подземный источник, и система водоснабжения пос. Холодная Балка г. Макеевки требует доведения качественных показателей до требований питьевой воды для оказания полного объема услуг централизованного водоснабжения населению. Производительность подземного водозабора в г. Комсомольское Старобешевского района, согласно разведанным и утвержденным в 1973 году эксплуатационным запасам, необходимо увеличить для обеспечения круглосуточного водоснабжения города и также повышения качества услуг централизованного водоснабжения. Для этого необходимо бурение дополнительной скважины производительностью не менее 120 м 3 /час. Ольховское водохранилище является резервным источником водоснабжения для Ольховской фильтровальной станции. В отсутствии воды из канала СДД вода из водохранилища подается на Ольховскую фильтровальную станцию в объеме 19,7 тыс.м 3 /сут., что составляет 60% от требуемого объема воды для водоснабжения городов Харцызск, Зугрэс, Иловайск, пос. Зуевка и др. Также из Ольховского водохранилища вода подается в канал Северский Донец-Донбасс для покрытия дефицита в городах Донецк, Макеевка, Ясиноватая в количестве 44,9 тыс. м 3 /сут. Объем заиления за период 1946-2001 составил 16,4% от проектного объема, что составило 4,4 млн м 3 . Интенсивность заиления составляет 88 тыс. м 3 /год. Основными источниками заиления Ольховского водохранилища являются взвеси в сбрасываемых шахтных водах и в стоке с водосборной площади, так как на основных водотоках и притоках сооружено множество прудов, шламонакопителей, прудов-отстойников. Основное количество их принадлежат предприятиям угольной промышленности, остальные имеют сельхозназначение. Для увеличения полезного объема Ольховского водохранилища также необходимо проведение работ по определению степени заиления и расчистка от донных отложений. Так как в настоящее время из водохранилища осуществляется постоянный отбор воды, необходимо выполнение работ по реконструкции водозаборных сооружений для увеличения их производительности и повышения надежности работы. Результаты: Обеспечение водой питьевого качества жителей пос. Холодная балка г. Макеевки в количестве 6450 человек. Обеспечение круглосуточной     подачи воды населению г. Комсомольское в количестве 11600 человек. Реконструкция водозаборных сооружений Ольховского и Волынцевского водохранилищ, увеличение полезного объема питьевых водохранилищ до проектных отметок обеспечит надежность работы системы питьевого водоснабжения для многих населенных пунктов ДНР с общим количеством населения 400073 человек. В рамках реализации Специального инфраструктурного проекта в указанный период запланировано 17,1 млрд рублей, что позволит выполнить работы по строительству, реконструкции (модернизации), капитальному ремонту 111 объектов теплоснабжения, водоснабжения и водоотведения. При этом количество восстанавливаемых объектов будет уточнено по результатам разработки схем теплоснабжения, водоснабжения и водоотведения. Кроме того, субъектами Российской Федерации в рамках выполнения на территории Донецкой Народной Республики мероприятий по восстановлению объектов тепло-, водоснабжения, водоотведения, выполнению работ по подготовке к осенне-зимнему периоду, а также капитальному ремонту многоквартирных домов запланировано 9,6 млрд рублей, что позволит выполнить работы по строительству, реконструкции (модернизации), капитальному ремонту 401 объекта теплоснабжения, водоснабжения и водоотведения, капитальному ремонту 381 многоквартирных домов. При этом количество восстанавливаемых объектов будет уточнено по результатам разработки схем теплоснабжения, водоснабжения и водоотведения. Разработка единой схемы теплоснабжения Донецкой Народной Республики в количестве 1 единицы, с разработанной электронной моделью и предложениями по развитию действующей системы теплоснабжения. Разработка единой схемы водоснабжения и водоотведения Донецкой Народной Республики в количестве 1 единицы, с разработанной электронной моделью и предложениями по развитию действующей системы теплоснабжения. Вместе с тем, наряду с восстановлением инфраструктуры, для предотвращения деградации систем инженерно-технического обеспечения и необходимого для ускоренного обновления основных фондов жилищно-коммунального хозяйства требуется обеспечить уровень замены сетей инженерно-технического обеспечения не ниже 5 % их общей протяженности. Для устранения дефицита средств, выхода ресурсоснабжающих организаций на самоокупаемость и формирования инвестиционной составляющей в тарифах, требуется их поэтапное доведение до средневзвешенного уровня в сопоставимых субъектах Российской Федерации. В целях формирования единой тарифной политики, а также ускоренной интеграции в российское законодательство в сфере регулирования цен и тарифов в сферах теплоснабжения, водоснабжения и водоотведения запланировано создание единых центров управления финансово-хозяйственной деятельностью предприятий и эксплуатации коммунальных систем путем создания единых ресурсоснабжающих организаций в сферах теплоснабжения, водоснабжения и водоотведения. III. Формирование комфортной городской среды В качестве основы для планирования мероприятий по реализации программ формирования современной городской среды программой определено проведение инвентаризации общественных и дворовых территорий до окончания 2024 года, формирование адресных перечней общественных и дворовых территорий, подлежащих благоустройству до 2030 года. При этом формирование адресных перечней и конкретных мероприятий по благоустройству будет производиться с обязательным участием жителей населенных пунктов. Мероприятия программы, в том числе утверждение правил благоустройства территорий, позволит осуществлять развитие городской среды во взаимосвязи с улучшением, обновлением, развитием инфраструктуры населенных пунктов и системы управления городским хозяйством, использованием лучших практик, технологий и материалов", "project": null, "addr": null, "area_sqm": null, "cadastral": null, "conf": 0.3}}, {"type": "Feature", "geometry": {"type": "Point", "coordinates": [37.5499621, 47.0957648]}, "properties": {"decree": "9", "date": "2024-01-18", "beneficiary": null, "project": null, "addr": null, "area_sqm": null, "cadastral": null, "conf": 0.3}}, {"type": "Feature", "geometry": {"type": "Point", "coordinates": [37.5142103, 47.0990826]}, "properties": {"decree": "121", "date": "2024-03-22", "beneficiary": null, "project": null, "addr": "Жовтневый район, проспект Ленина, дом 77 Б", "area_sqm": null, "cadastral": null, "conf": 0.5}}, {"type": "Feature", "geometry": {"type": "Point", "coordinates": [37.5272075, 47.0929055]}, "properties": {"decree": "122", "date": "2024-03-22", "beneficiary": "Специализированный застройщик-1 «Порфир»", "project": null, "addr": "Приморский район, бульвар Богдана Хмельницкого, 6А", "area_sqm": null, "cadastral": null, "conf": 0.5}}, {"type": "Feature", "geometry": {"type": "Point", "coordinates": [37.5077577, 47.0994097]}, "properties": {"decree": "175", "date": "2024-04-19", "beneficiary": "Специализированный застройщик «МираСтрой 3»", "project": null, "addr": "Российская | Федерация, Донецкая Народная Республика, городской округ Мариуполь, город Мариуполь, Жовтневый район, улица Куприна, 3 А", "area_sqm": 5594.0, "cadastral": null, "conf": 0.5}}, {"type": "Feature", "geometry": {"type": "Point", "coordinates": [37.5142103, 47.0990826]}, "properties": {"decree": "176", "date": "2024-04-19", "beneficiary": "Специализированный застройщик «МираСтрой 2»", "project": null, "addr": "Жовтневый район, проспект Ленина, 129 А", "area_sqm": null, "cadastral": null, "conf": 0.5}}, {"type": "Feature", "geometry": {"type": "Point", "coordinates": [37.5142103, 47.0990826]}, "properties": {"decree": "177", "date": "2024-04-19", "beneficiary": "Специализированный застройщик «МираСтрой»", "project": null, "addr": "Жовтневый район, проспект Ленина, 127 Б", "area_sqm": null, "cadastral": null, "conf": 0.5}}, {"type": "Feature", "geometry": {"type": "Point", "coordinates": [37.5077577, 47.0994097]}, "properties": {"decree": "178", "date": "2024-04-19", "beneficiary": "Специализированный застройщик «МираСтрой 4»", "project": null, "addr": "Жовтневый район, улица Куприна, 5 А", "area_sqm": 5400.0, "cadastral": null, "conf": 0.5}}, {"type": "Feature", "geometry": {"type": "Point", "coordinates": [37.5389121, 47.0935107]}, "properties": {"decree": "179", "date": "2024-04-19", "beneficiary": "Специализированный застройщик ТЕМП", "project": null, "addr": "Жовтневый район, улица Апатова, 121 А", "area_sqm": 3486.0, "cadastral": null, "conf": 0.5}}, {"type": "Feature", "geometry": {"type": "Point", "coordinates": [37.5142103, 47.0990826]}, "properties": {"decree": "180", "date": "2024-04-19", "beneficiary": "Специализированный застройщик ТЕМП", "project": null, "addr": "Жовтневый район, проспект Ленина, дом 96А", "area_sqm": 3827.0, "cadastral": null, "conf": 0.5}}, {"type": "Feature", "geometry": {"type": "Point", "coordinates": [37.5232779, 47.0915531]}, "properties": {"decree": "181", "date": "2024-04-19", "beneficiary": "Специализированный застройщик «ТЮС-НР1»", "project": null, "addr": "улица Бахчиванджи, 2 А", "area_sqm": null, "cadastral": null, "conf": 0.5}}, {"type": "Feature", "geometry": {"type": "Point", "coordinates": [37.5299881, 47.0909528]}, "properties": {"decree": "182", "date": "2024-04-19", "beneficiary": "Специализированный застройщик «ТЮС-НР2»", "project": null, "addr": "Жовтневый район, улица Бахчиванджи, 7 А", "area_sqm": 2203.0, "cadastral": null, "conf": 0.5}}, {"type": "Feature", "geometry": {"type": "Point", "coordinates": [37.5290145, 47.0898314]}, "properties": {"decree": "183", "date": "2024-04-19", "beneficiary": "Специализированный застройщик ТЕМП", "project": null, "addr": "Жовтневый район, проспект Нахимова, 101Б", "area_sqm": null, "cadastral": null, "conf": 0.5}}, {"type": "Feature", "geometry": {"type": "Point", "coordinates": [37.5272075, 47.0929055]}, "properties": {"decree": "184", "date": "2024-04-19", "beneficiary": "Специализированный застройщик ТЕМП-80", "project": null, "addr": "Жовтневый район, бульвар Богдана Хмельницкого, 33 Б", "area_sqm": 8798.0, "cadastral": null, "conf": 0.5}}, {"type": "Feature", "geometry": {"type": "Point", "coordinates": [37.5142103, 47.0990826]}, "properties": {"decree": "185", "date": "2024-04-19", "beneficiary": "Специализированный застройщик ТЕМП-80", "project": null, "addr": "Жовтневый район, проспект Ленина, 86 А", "area_sqm": null, "cadastral": null, "conf": 0.5}}, {"type": "Feature", "geometry": {"type": "Point", "coordinates": [37.5142103, 47.0990826]}, "properties": {"decree": "186", "date": "2024-04-19", "beneficiary": "Зорка Фуд", "project": null, "addr": "Приморский район, проспект Ленина, 130 А", "area_sqm": null, "cadastral": null, "conf": 0.5}}, {"type": "Feature", "geometry": {"type": "Point", "coordinates": [37.5499621, 47.0957648]}, "properties": {"decree": "187", "date": "2024-04-19", "beneficiary": "Специализированный застройщик «Азовские просторы»", "project": null, "addr": null, "area_sqm": null, "cadastral": null, "conf": 0.3}}, {"type": "Feature", "geometry": {"type": "Point", "coordinates": [37.5499621, 47.0957648]}, "properties": {"decree": "188", "date": "2024-04-19", "beneficiary": "Специализированный застройщик «Азовские просторы»", "project": null, "addr": null, "area_sqm": 6078.0, "cadastral": null, "conf": 0.3}}, {"type": "Feature", "geometry": {"type": "Point", "coordinates": [37.5499621, 47.0957648]}, "properties": {"decree": "189", "date": "2024-04-19", "beneficiary": "Специализированный застройщик «Азовские просторы»", "project": null, "addr": null, "area_sqm": null, "cadastral": null, "conf": 0.3}}, {"type": "Feature", "geometry": {"type": "Point", "coordinates": [37.5499621, 47.0957648]}, "properties": {"decree": "331", "date": "2024-07-10", "beneficiary": "Автодор-УП») Российской Федерации (в рамках реализации специального инфраструктурного проекта): в 2024 году — 203,64 км, 2025 году — 253,6 км. 3.1.2. Железнодорожная инфраструктура. Протяженность железнодорожных путей на территории Донецкой Народной Республики составляет 2917,6 км. Железнодорожную инфраструктуру составляют 74 железнодорожные станции (в том числе 1 разъезд), 1 блокпост, 1 путевой пост, 1 обгонный пункт, 20 структурных подразделений. Крупными железнодорожными узлами являются Ясиноватая, Горловка, Иловайск, Дебальцево-Сорт, Мариуполь, Волноваха. Грузооборот железнодорожного транспорта составил 1552,7 млн ткм, количество тонн груза — 8202,0 тыс. т. К основным видам грузов, перевозимых железнодорожным транспортом по территории Донецкой Народной Республики, относятся сырье для металлургии, кокс, черные металлы, уголь каменный для предприятий энергетического комплекса Донецкой Народной Республики. Распоряжением Правительства Российской Федерации от 29 мая 2023 г. № 1404-р создано федеральное государственное унитарное предприятие «Железные дороги Новороссии», которое объединило железные дороги Донецкой Народной Республики, Луганской Народной Республики, Запорожской и Херсонской областей, с местом нахождения в городе Донецке. 3.1.3. Морской торговый порт. В Донецкой Народной Республике на территории города Мариуполя расположен Мариупольский морской торговый порт, который является крупнейшим портом на севере Азовского моря. Акватория морского порта состоит из внутреннего и внешнего рейдов, а также из подходных каналов и подводных свалок грунта. Концепцией Мастер-плана развития города Мариуполь, утвержденной Указом Главы Донецкой Народной Республики от 30 июля 2022 г. № 420 «О Концепции Мастер-плана развития города Мариуполь» , предполагается выполнение к 2025 году восстановительных работ на территории морского торгового порта Мариуполь, в том числе строительство морского пассажирского порта в составе транспортно-пересадочных узлов на базе железнодорожной станции Мариуполь. К точкам роста грузопотока в среднесрочной перспективе можно отнести свободную экономическую зону на территориях Донецкой Народной Республики, Луганской Народной Республики, Запорожской области и Херсонской области. 3.1.4. Трубопроводный транспорт. Система управления газовой отраслью в Донецкой Народной Республике возложена на Государственный Концерн «Донбассгаз» — единое государственное многопрофильное предприятие по управлению газоснабжением Донецкой Народной Республики. В задачи предприятия входят реализация, поставка и транспортировка природного газа по распределительным газопроводам, строительство и реконструкция распределительных систем газоснабжения. Производственные мощности Государственного Концерна «Донбассгаз» составляют 1990,236 млн м3/год. В 2022 году количество газораспределительных пунктов составило 2151 шт. В этом же году протяженность магистральных газопроводов Государственного унитарного предприятия Донецкой Народной Республики «Донбасстрансгаз» составила 1628,822 км, из которых 83 ответвления, 67 газораспределительных станций и 2 газораспределительных пункта. Донецкая Народная Республика является удобным транспортным хабом для торговли с соседними регионами. Развитие трубопроводной инфраструктуры позволит облегчить доставку газа, других энергетических ресурсов, а также укрепить позиции региона на международном рынке энергетики. 3.2. Информационно-телекоммуникационный сектор Информатизация является одним из приоритетных направлений развития большинства стран мира. Среди факторов, способствующих развитию данной сферы в Донецкой Народной Республике, выделяются наличие профессиональных учреждений по подготовке 1Т-специалистов, привлекательность IT-рынка за счет отсутствия на нем высокого уровня конкуренции и нарастающая активность 1Т-бизнеса. В Донецкой Народной Республике создано государственное унитарное предприятие Донецкой Народной Республики «Республиканский центр информационных технологий» в целях обеспечения выполнения задач по формированию и обеспечению функционирования государственных и ведомственных информационных систем и ресурсов, информационно-телекоммуникационных сетей органов государственной власти Донецкой Народной Республики, а также для формирования в Донецкой Народной Республике инфраструктуры общественного доступа предпринимательского сообщества и населения к информации о деятельности исполнительных органов региона с использованием информационных технологий. 3.3. Топливно-энергетический комплекс Топливно-энергетический комплекс Донецкой Народной Республики включает угледобывающую промышленность и энергетику, которые являются базовыми отраслями экономики, гарантирующими энергетическую безопасность Донецкой Народной Республики, бесперебойную и эффективную работу металлургического комплекса и других отраслей промышленности. В топливно-энергетическом комплексе Донецкой Народной Республики обеспечивается замкнутый цикл производства электроэнергии из добытого угля. Созданная вертикально интегрированная система управления включает в себя процессы добычи и переработки угля, доставку угля потребителю, генерацию и распределение электроэнергии электросетями, поставку электроэнергии конечным потребителям. Угледобывающая промышленность Донецкой Народной Республики представлена 5 государственными унитарными предприятиями (в состав которых входит 17 шахт), подведомственными Министерству угля и энергетики Донецкой Народной Республики, и 60 шахтами частной формы собственности. Лидерами отрасли являются государственное унитарное предприятие Донецкой Народной Республики «Шахта Комсомолец Донбасса», филиал «Шахта «Шахтерская-Глубокая», филиал «Шахта «Прогресс» государственного унитарного предприятия Донецкой Народной Республики «Торезантрацит», а также публичное акционерное общество «Арендное предприятие «Шахта «Ждановская». С учетом политики стимулирования внутреннего потребления угля планируется рост поставок каменного угля предприятиям и населению региона. Вместе с тем производственная база позволяет расширять поставки за границу, чему способствует наличие спроса на российский уголь на азиатских рынках. Энергетическая система Донецкой Народной Республики представляет собой комплекс объектов электроэнергетики (электрических станций, электрических и тепловых сетей и других объектов электроэнергетики), связанных единым процессом производства, передачи (транспортировки), распределения и потребления электрической энергии и мощности в условиях централизованного оперативно-диспетчерского управления в электроэнергетике. В 2022 году выработка электроэнергии предприятиями Донецкой Народной Республики составила 8673,4 млн кВт/ч. Для восстановления и реконструкции предприятий в сфере энергетики в рамках реализации Программы социально-экономического развития Донецкой Народной Республики планируются капитальные вложения: из федерального бюджета в 2024 году на общую сумму 5,85 млрд руб., в 2025 году — 3,6 млрд руб., из иных источников в 2024 году — 11,1 млрд руб., в 2025 году — 6,58 млрд руб. 3.4. Металлургический комплекс Металлургический комплекс Донецкой Народной Республики представлен 124 предприятиями и включает в себя: 1) предприятия по добыче нерудных полезных ископаемых (песка, известняка, щебня), продукция которых используется в качестве сырья в металлургическом производстве; 2) предприятия по производству кокса и коксопродуктов (промежуточное звено в технологической цепочке «уголь-кокс-металл»); 3) производителей металла и металлообработки. На территории Донецкой Народной Республики действуют 13 предприятий по добыче декоративного и строительного камня, известняка, гипса, мела, глинистого сланца и других полезных ископаемых, разработке карьеров, а также 10 предприятий по производству кокса и коксопродуктов. В 2022 году в Донецкой Народной Республике произведено 899,9 тыс. т кокса и полукокса из каменного угля, 955,3 тыс. т чугуна передельного и зеркального. Производство видов металлопродукции составило: проката готовых черных металлов — 783,2 тыс. т, стали — 646,6 тыс. т, проволоки из стали — 14,5 тыс. т. Объем реализации продукции металлургического производства составил 31,1 % от всей реализованной промышленной продукции. 3.5. Машиностроительная промышленность На территории Донецкой Народной Республики находятся 113 предприятий машиностроительной отрасли промышленности. Машиностроение Донецкой Народной Республики ориентировано на производство машин и оборудования для базовых отраслей промышленности (металлургии, угольной промышленности, энергетики, транспорта, строительства и сельского хозяйства), а также товаров народного потребления. К ведущим предприятиям отрасли относятся: 1) ООО «Донфрост» (бытовое холодильное оборудование); 2) ДФ ООО «Авиатех» (комплектующие к авиационным двигателям, товары народного потребления); 3) ООО «Дебальцевский завод металлургического машиностроения» (запасные части к дробильному и металлургическому оборудованию); 4) ООО «Интеркод» (средства индивидуальной защиты); 5) ООО «НПО «Ясиноватский машиностроительный завод» (горно-шахтное оборудование); 6) ПАО «Донецкий экспериментальный ремонтно-механический завод» (производство металлоарочной крепи, нестандартизированного оборудования); 7) ООО «Макеевский завод «Лазер» (горно-шахтное оборудование). Строительство мариупольского индустриального парка общества с ограниченной ответственностью «Мариупольтяжмаш», специализирующегося на размещении машиностроительных предприятий, производителей железнодорожного транспорта, металлургического производства и выпуске других видов продукции на территории Донецкой Народной Республики, а также определенных площадок под производство с наличием инженерных коммуникаций будет способствовать развитию экономики региона, привлечению инвестиций, созданию новых рабочих мест. 3.6. Химическая промышленность Химическая отрасль промышленности остается одной из перспективных для развития в Донецкой Народной Республике. Постоянное увеличение потребности в химической продукции, улучшение процессов переработки сырья способствуют развитию химической индустрии. На 59 предприятиях осуществляется производство химических веществ и химической продукции для промышленных целей, товаров бытовой химии, мыла, моющих и чистящих средств, парфюмерных и косметических средств, а также пластмассовых и резинотехнических изделий. Согласно оперативным данным предприятий химической отрасли объем произведенной продукции по итогам 2022 года составил 1856,3 млн руб., объем реализованной продукции — 2064,1 млн руб. Уровень загрузки производственных мощностей предприятий химической отрасли в 2022 году достиг показателя 64,8 %. В разрезе подотраслей по видам изготавливаемой продукции уровень загрузки составил: 1) бытовая химия — 70,3 %; 2) пластмассовые изделия — 80,1 %; 3) резинотехнические изделия — 63,2 %; 4) химические вещества и химическая продукция — 45,5 %. 3.7. Фармацевтическая промышленность Фармацевтическая промышленность имеет высокое социальное значение в регионе и является одним из приоритетных направлений развития Донецкой Народной Республики. Фармацевтическая промышленность Донецкой Народной Республики представлена 7 предприятиями, которые осуществляют производство лекарственных средств (капсульных и таблетированных форм, а также в виде растворов для наружного применения (этанола), изделий медицинского назначения (горчичников, лейкопластырей, средств индивидуальной защиты) и фитопродукции (фиточая и фитованн). Развитие фармацевтической промышленности — стратегически важный шаг для обеспечения здоровья нации и медицинской независимости региона. В соответствии со Стратегией развития фармацевтической промышленности Российской Федерации на период до 2030 года, утвержденной распоряжением Правительства Российской Федерации от 7 июня 2023 г. № 1495-р , сильными сторонами российской фармацевтической отрасли являются: 1) уверенный рост внутреннего рынка, обусловливающий инвестиционную привлекательность развития внутреннего производства; 2) наличие стабильного спроса на конкурентоспособные фармацевтические субстанции со стороны отечественных производителей, осуществляющих производство со стадии готовой лекарственной формы. Основным препятствием для широкого развития фармацевтической отрасли внутри страны в рамках импортозамещения является недостаточность инвестиционных ресурсов. Объем производства лекарственных средств и изделий медицинского назначения в 2022 году составил 608,5 млн руб., объем реализованной продукции — 494,8 млн руб. Уровень загрузки производственных мощностей отрасли достиг показателя 43,6 %, из них: 1) производство лекарственных препаратов — 84,2 %; 2) производство изделий медицинского назначения — 10%; 3) производство фиточая — 54,2 %. 3.8. Легкая промышленность Развитие легкой промышленности позволяет решать такие социальные вопросы, как занятость населения, улучшение уровня благосостояния граждан, поддержка и развитие малого бизнеса. Легкая промышленность Донецкой Народной Республики представлена 3 основными видами деятельности: текстильное производство, швейно-трикотажное производство, производство кожи, изделий из кожи и производство обуви. Ведущими предприятиями отрасли являются: ООО «Спецодежда и униформа», ООО «Трансстрой», ПАО «Снежнянская швейная фабрика «Снежинка», ООО «Лемуа», ООО «ПГ «УФС» Завод «Фильтр». В целом по отрасли по итогам 2022 года объем произведенной продукции легкой промышленности составил 469,1 млн руб., объем реализованной продукции — 515,2 млн руб. Уровень загрузки производственных мощностей предприятий легкой промышленности в 2022 году достиг показателя 70 %, из них: 1) швейно-трикотажное производство — 87 %; 2) производство кожи, изделий из кожи и обуви — 45,0 %; 3) текстильное производство — 48,0 %. В швейно-трикотажной подотрасли объем производства за 2022 год составил 394,65 млн руб. Объем реализации — 400,67 млн руб. В текстильной подотрасли объем производства составил 45,06 млн руб. Объем реализации — 85,2 млн руб. В кожевенной подотрасли объем производства и реализации составил 29,35 млн руб. 3.9. Промышленность строительных и нерудных материалов Промышленность строительных материалов Донецкой Народной Республики представлена 197 предприятиями, специализирующимися на производстве стеновых материалов (шлакоблоков, листов асбестоцементных плоских), вяжущих (цемента), кровельных материалов (шифера), разнообразных изоляционных, облицовочных, отделочных материалов. Ведущими предприятиями отрасли по объемам реализации и производства готовой продукции являются Филиал № 1 ООО «Пик-ЦементЧ-», ООО «Техпром», ООО «Атлон», ООО «ТНП «Стеан», ООО «Гильдия Групп», ЧП «Модус». По итогам работы 2022 года предприятиями отрасли всего произведено продукции на сумму 4247,24 млн руб., в том числе: 1) строительных материалов — 3936,44 млн руб.; 2) нерудных материалов — 310,80 млн руб. В 2022 году реализовано продукции на общую сумму 4679,79 млн руб., в том числе: 1) строительных материалов — 4 154,25 млн руб.; 2) нерудных материалов — 525,54 млн руб. В среднем предприятия промышленности строительных и нерудных материалов загружены на 33,5 %. 3.10. Пищевая промышленность Донецкой Народной Республики Пищевая промышленность Донецкой Народной Республики согласно данным Государственной службы статистики Донецкой Народной Республики в 2022 году была представлена 87 предприятиями (без учета индивидуальных предпринимателей), которые осуществляли деятельность в следующих отраслях: хлебопекарная, молокоперерабатывающая, мясоперерабатывающая, мукомольно-крупяная, кондитерская, масложировая, плодоовощная, консервная, пищевкусовая, пивоваренная, рыбоперерабатывающая, комбикормовая, макаронная, табачная, а также производство безалкогольных напитков и ликеро-водочных изделий. Каждая отрасль объединяет в себе предприятия и производственные мощности, обладающие схожестью выпускаемых продуктов питания, технологий и потребностей, которые она удовлетворяет. Объем реализованной продукции в производстве пищевых продуктов, напитков и табачных изделий в 2022 году составил 16,0 % к объему всей реализованной продукции. Доля продукции, произведенной в Донецкой Народной Республике в розничном товарообороте торговых сетей, составила: яйцо куриное — 89 %, хлебобулочные изделия — 76 %, мука пшеничная — 74 %, мясоколбасные изделия — 62 %, молоко и молочные продукты — 55 %, мясо и птица — 40 %, макаронные изделия — 33 %, сливочное масло — 22 %, сыры — 16 %. Перспективы развития пищевой промышленности Донецкой Народной Республики для инвесторов заключаются в: 1) устойчивом рынке потребления; 2) развитии новых продуктов; 3) развитии экспортного потенциала; 4) повышении производительности и эффективности; 5) поддержке со стороны Правительства Донецкой Народной Республики. 3.11. Сельское и рыбное хозяйство Донецкой Народной Республики Сельское и рыбное хозяйство Донецкой Народной Республики являются базовыми отраслями агропромышленного комплекса, обеспечивающими продовольственную и экономическую безопасность региона. 3.11.1. Сельское хозяйство Донецкой Народной Республики представлено такими подотраслями, как растениеводство и животноводство, и специализируется на выращивании зерновых и зернобобовых, технических (масличных), кормовых и овощебахчевых культур, а также на производстве мяса скота и птицы, молока и яиц. По итогам 2022 года в Донецкой Народной Республике функционирует около 1290 хозяйствующих субъектов в сфере растениеводства и 195 в сфере животноводства. В 2022 году общая посевная площадь Донецкой Народной Республики в хозяйствах всех категорий составила 491,9 тыс. га, валовой сбор урожая зерновых и зернобобовых культур в сельскохозяйственных организациях, крестьянских (фермерских) хозяйствах и у физических лиц — предпринимателей (индивидуальных предпринимателей) достиг показателя 733,8 тыс. т, технических (масличных) культур — 163,4 тыс. т, картофеля и овощебахчевых культур (включая овощи закрытого грунта) — 6,2 тыс. т. По состоянию на конец 2022 года численность поголовья крупного рогатого скота сельскохозяйственных предприятий и у индивидуальных предпринимателей составила 19,9 тыс. голов, поголовья свиней — 39,1 тыс. голов, овец и коз — 4,2 тыс. голов, птицы всех видов — 3546,4 тыс. голов. 3.11.2. Рыбохозяйственная отрасль Донецкой Народной Республики также способствует обеспечению продовольственной безопасности региона и в 2022 году была представлена 146 действующими предприятиями, осуществляющими деятельность в сфере любительского и спортивного рыболовства, прибрежного (промыслового) рыболовства и аквакультуры. Вылов водных биоресурсов осуществляется во внутренних водных объектах и в акватории Азовского моря, прилегающей к территории Донецкой Народной Республики (Азово-Черноморский бассейн). Основными промысловыми видами водных биоресурсов во внутренних водных объектах являются карп, толстолобик, амур белый и карась серебряный. В акватории Азовского моря к основным промысловым видам относятся бычок, сельдь азово-черноморская, хамса, пиленгас, тюлька и прочее (креветка азовская, лещ, камбала-калкан, атерина). В 2022 году в Донецкой Народной Республике было выловлено 910,8 т водных биоресурсов, в том числе 95,8 т во внутренних водоемах, 815,0 — в акватории Азовского моря. 3.12. Характеристика трудовых ресурсов Одним из основных условий развития всех секторов экономики является наличие высококвалифицированных технических, производственных кадров и управленцев. Программы среднего профессионального образования в Донецкой Народной Республике реализуют 111 образовательных организаций. Подготовка кадров осуществляется согласно 33 направлениям по 106 специальностям и 54 профессиям. Все образовательные программы реализуются в тесной взаимосвязи с работодателями: программы согласовываются с представителями предприятий, вариативная часть программ формируется по запросу организаций реального сектора экономики, производственная практика реализуется на базовых предприятиях. Подготовку специалистов с высшим образованием на территории Донецкой Народной Республики осуществляют 17 образовательных организаций высшего образования. Для ведения бизнеса образовательные организации высшего образования осуществляют подготовку специалистов высокой квалификации для всех отраслей экономики региона. Реализуются более 450 направлений подготовки, более 60 специальностей и более 20 профессий. Благодаря тесному взаимодействию образовательных организаций высшего образования с производственными предприятиями обеспечивается трудоустройство выпускников. Среднесписочная численность занятых в 2022 году сложилась в следующих отраслях экономики: 1) в промышленном производстве -31,4 %; 2) в сфере образования — 18,35 %; 3) в учреждениях здравоохранения и предоставления социальной помощи — 15,99 %; 4) в сфере государственного управления и обороны — 6,85 %; 5) в организациях оптовой и розничной торговли, ремонта автотранспортных средств и мотоциклов — 6,93 %; 6) на предприятиях транспорта, складского хозяйства, почтовой и курьерской деятельности — 6,06 %; 7) в других отраслях — 14,4 %. 3.13. Наличие на территории Донецкой Народной Республики преференциальных режимов для субъектов инвестиционной деятельности Преференциальные режимы для субъектов инвестиционной деятельности в Донецкой Народной Республике предусматривают ряд преимуществ и льгот. На территории Донецкой Народной Республики действует Федеральный закон от 24 июня 2023 г. № 266-ФЗ «О свободной экономической зоне на территориях Донецкой Народной Республики, Луганской Народной Республики, Запорожской области и Херсонской области» (далее — Закон о свободной экономической зоне), который регулирует отношения, связанные с функционированием свободной экономической зоны на указанных территориях, во внутренних морских водах и территориальном море Российской Федерации, примыкающих к территориям Донецкой Народной Республики, Запорожской области и Херсонской области (далее — СЭЗ). Функционирование СЭЗ предусмотрено до 31 декабря 2050 г. с возможностью пролонгации. В соответствии с Законом о свободной экономической зоне на территории СЭЗ действует особый правовой режим осуществления участниками СЭЗ, реализующими инвестиционные проекты, предпринимательской и иной деятельности, а также применяется таможенная процедура свободной таможенной зоны. В частности, особый правовой режим предусматривает особенности осуществления градостроительной деятельности и землепользования, особый режим налогообложения и обложения страховыми взносами в соответствии с законодательством Российской Федерации о налогах и сборах, а также возможность предоставления субсидий на возмещение процентной ставки по кредитам, привлеченным участником СЭЗ в целях реализации инвестиционных проектов. К участнику СЭЗ предъявляются следующие требования: 1) регистрация на территории Донецкой Народной Республики или создание филиала в случае, если юридическое лицо зарегистрировано за пределами СЭЗ; 2) общий объем капитальных вложений в первые 3 года с даты заключения договора об условиях деятельности в СЭЗ: — не менее 1 млн рублей — для реализации инвестиционных проектов в области разработки компьютерных технологий и создания программного обеспечения, оказания консультационных услуг в указанной области и других сопутствующих услуг, в области информационных технологий, научных исследований и разработок; — не менее 3 млн рублей — для лиц, являющихся субъектами малого и среднего предпринимательства; — не менее 30 млн рублей — для иных лиц. Для участников СЭЗ Федеральным законом от 24 июня 2023 г. № 268-ФЗ «О внесении изменений в статью 5 части первой и часть вторую Налогового кодекса Российской Федерации» установлены следующие льготы: Федеральная часть Региональная часть Налог на прибыль 0 % в течение 10 лет с момента получения прибыли от реализации инвестиционного проекта (пункт 1.7-1 статьи 284 НК РФ) Налог на прибыль: 0-13,5 % в отношении прибыли, полученной от реализации инвестиционного проекта (пункт 1.7-1 статьи 284 НК РФ); ускоренная амортизация в отношении основных средств с коэффициентом 2 (подпункт 3 пункта 1 статьи 259.3 НК РФ); страховые взносы 7,6 %; акциз на жидкую сталь 0 %; НДПИ на уголь и железную руду 0 % в течение 5 лет при условии выполнения среднеквартальных показателей: средней численности и средней заработной платы (пункты 13, 14 статьи 193, подпункт 22 пункта 1 статьи 342, подпункт 22 пункта 1, пункт 17 статьи 427 НК РФ); налог на имущество 0% в течение 10 лет с момента принятия каждого объекта имущества на учет (пункт 29 статьи 381 НК РФ); земельный налог 0 % сроком на 3 года с месяца возникновения права собственности на каждый", "project": null, "addr": null, "area_sqm": null, "cadastral": null, "conf": 0.3}}, {"type": "Feature", "geometry": {"type": "Point", "coordinates": [37.5227387, 47.092974]}, "properties": {"decree": "330", "date": "2024-08-23", "beneficiary": "Специализированный застройщик «ТЮС-НР1»", "project": null, "addr": "Жовтневый район, проспект Строителей, 117 А", "area_sqm": null, "cadastral": null, "conf": 0.5}}, {"type": "Feature", "geometry": {"type": "Point", "coordinates": [37.6856505, 47.1273364]}, "properties": {"decree": "339", "date": "2024-09-02", "beneficiary": "Региональная строительная компания", "project": null, "addr": "Орджоникидзевский район, улица Киевская, 59 Б", "area_sqm": 7993.0, "cadastral": null, "conf": 0.5}}, {"type": "Feature", "geometry": {"type": "Point", "coordinates": [37.6909256, 47.1259588]}, "properties": {"decree": "340", "date": "2024-09-02", "beneficiary": "Региональная строительная компания", "project": null, "addr": "Российская Федерация, Донецкая {Народная Республика, городской округ Мариуполь, город Мариуполь, Орджоникидзевский район, проспект Маршала Жукова, 90 Б", "area_sqm": 7547.0, "cadastral": null, "conf": 0.5}}, {"type": "Feature", "geometry": {"type": "Point", "coordinates": [37.5499621, 47.0957648]}, "properties": {"decree": "341", "date": "2024-09-02", "beneficiary": null, "project": null, "addr": null, "area_sqm": null, "cadastral": null, "conf": 0.3}}, {"type": "Feature", "geometry": {"type": "Point", "coordinates": [37.5499621, 47.0957648]}, "properties": {"decree": "392", "date": "2024-10-24", "beneficiary": null, "project": null, "addr": null, "area_sqm": 6639.0, "cadastral": null, "conf": 0.3}}, {"type": "Feature", "geometry": {"type": "Point", "coordinates": [37.5499621, 47.0957648]}, "properties": {"decree": "393", "date": "2024-10-24", "beneficiary": "Специализированный застройщик «Строительное управление - 2007»", "project": null, "addr": null, "area_sqm": null, "cadastral": null, "conf": 0.3}}, {"type": "Feature", "geometry": {"type": "Point", "coordinates": [37.5499621, 47.0957648]}, "properties": {"decree": "394", "date": "2024-10-24", "beneficiary": "Специализированный застройщик «Строительное управление - 2007»", "project": null, "addr": null, "area_sqm": 9641.0, "cadastral": null, "conf": 0.3}}, {"type": "Feature", "geometry": {"type": "Point", "coordinates": [37.5227387, 47.092974]}, "properties": {"decree": "413", "date": "2024-11-18", "beneficiary": null, "project": null, "addr": "Приморский район, проспект Строителей, земельный участок 36 Б", "area_sqm": null, "cadastral": null, "conf": 0.5}}, {"type": "Feature", "geometry": {"type": "Point", "coordinates": [37.5077577, 47.0994097]}, "properties": {"decree": "414", "date": "2024-11-18", "beneficiary": "Специализированный застройщик «СИРИУС БИЛД»ь", "project": null, "addr": "городской округ — Мариуполь, город Мариуполь, улица Куприна, 69Б", "area_sqm": 6436.0, "cadastral": null, "conf": 0.5}}, {"type": "Feature", "geometry": {"type": "Point", "coordinates": [37.5077577, 47.0994097]}, "properties": {"decree": "415", "date": "2024-11-18", "beneficiary": "Специализированный застройщик «Антарес»", "project": null, "addr": "Жовтневый район, улица Куприна, земельный участок № 65а", "area_sqm": 13133.0, "cadastral": null, "conf": 0.5}}, {"type": "Feature", "geometry": {"type": "Point", "coordinates": [37.5499621, 47.0957648]}, "properties": {"decree": "430", "date": "2024-12-03", "beneficiary": "Специализированный застройщик «Вертикаль Новороссия-1»", "project": null, "addr": "городской округ — Мариуполь, город Мариуполь, проспект Тульский, земельный участок 158Е", "area_sqm": null, "cadastral": null, "conf": 0.1}}, {"type": "Feature", "geometry": {"type": "Point", "coordinates": [37.5499621, 47.0957648]}, "properties": {"decree": "431", "date": "2024-12-03", "beneficiary": "Специализированный застройщик «Вертикаль Новороссия-1»", "project": null, "addr": "городской округ — Мариуполь, город Мариуполь, проспект Тульский, земельный участок 158Д", "area_sqm": null, "cadastral": null, "conf": 0.1}}, {"type": "Feature", "geometry": {"type": "Point", "coordinates": [37.5389121, 47.0935107]}, "properties": {"decree": "447", "date": "2024-12-18", "beneficiary": "Специализированный застройщик «ТЮС-НР2»", "project": null, "addr": "Жовтневый район, улица Апатова, 129А", "area_sqm": null, "cadastral": null, "conf": 0.5}}, {"type": "Feature", "geometry": {"type": "Point", "coordinates": [37.5499621, 47.0957648]}, "properties": {"decree": "448", "date": "2024-12-18", "beneficiary": "ОСС", "project": null, "addr": "(территория ограничена улицей Куприна, проспектом Ленина, микрорайоном «Невский»)", "area_sqm": 18410.0, "cadastral": null, "conf": 0.1}}, {"type": "Feature", "geometry": {"type": "Point", "coordinates": [37.5499621, 47.0957648]}, "properties": {"decree": "10", "date": "2025-01-20", "beneficiary": "Специализированный застройщик «Новое время 3»", "project": null, "addr": "Жовтневый район, территория, ограниченная Володарским шоссе, улицей Солнечной, улицей Урицкого, улицей Гранитной, улицей 60 лет СССР, бульваром Шевченко", "area_sqm": null, "cadastral": null, "conf": 0.1}}, {"type": "Feature", "geometry": {"type": "Point", "coordinates": [37.5081086, 47.1258438]}, "properties": {"decree": "11", "date": "2025-01-20", "beneficiary": "Специализированный застройщик «Новое время 3»", "project": null, "addr": "Жовтневый район, улица Семененко, 4", "area_sqm": null, "cadastral": null, "conf": 0.5}}, {"type": "Feature", "geometry": {"type": "Point", "coordinates": [37.5087504, 47.1243004]}, "properties": {"decree": "12", "date": "2025-01-20", "beneficiary": "Специализированный застройщик «Новое время 3»", "project": null, "addr": "Жовтневый район, улица Урицкого, 91", "area_sqm": null, "cadastral": null, "conf": 0.5}}, {"type": "Feature", "geometry": {"type": "Point", "coordinates": [37.5077577, 47.0994097]}, "properties": {"decree": "13", "date": "2025-01-20", "beneficiary": "Специализированный застройщик «Олимпстрой НР»", "project": null, "addr": "улица Куприна, земельный участок 776", "area_sqm": 4040.0, "cadastral": null, "conf": 0.5}}, {"type": "Feature", "geometry": {"type": "Point", "coordinates": [37.5499621, 47.0957648]}, "properties": {"decree": "14", "date": "2025-01-20", "beneficiary": "Специализированный застройщик «Олимпстрой НР»", "project": null, "addr": "Жовтневый район, территория, ограниченная бульваром Шевченко, улицей Куприна, улицей 50 лет СССР, проспектом Строителей", "area_sqm": 4654.0, "cadastral": null, "conf": 0.1}}, {"type": "Feature", "geometry": {"type": "Point", "coordinates": [37.5158072, 47.1171736]}, "properties": {"decree": "15", "date": "2025-01-20", "beneficiary": "Специализированный застройщик «Олимпстрой НР»", "project": null, "addr": "бульвар Шевченко, земельный участок 27ба", "area_sqm": null, "cadastral": null, "conf": 0.5}}, {"type": "Feature", "geometry": {"type": "Point", "coordinates": [37.5227387, 47.092974]}, "properties": {"decree": "16", "date": "2025-01-20", "beneficiary": "Специализированный застройщик-1 «Порфир»", "project": null, "addr": "проспект Строителей, земельный участок 70Б", "area_sqm": null, "cadastral": null, "conf": 0.5}}, {"type": "Feature", "geometry": {"type": "Point", "coordinates": [37.5227387, 47.092974]}, "properties": {"decree": "17", "date": "2025-01-20", "beneficiary": "Специализированный застройщик-1 «Порфир»", "project": null, "addr": "проспект Строителей, земельный участок 9ЗА", "area_sqm": null, "cadastral": null, "conf": 0.5}}, {"type": "Feature", "geometry": {"type": "Point", "coordinates": [37.6300215, 47.108656]}, "properties": {"decree": "7", "date": "2025-01-20", "beneficiary": "Специализированный застройщик «Эводом-5»", "project": null, "addr": "Орджоникидзевский район, улица Миклухо-Маклая, ЗА", "area_sqm": 2953.0, "cadastral": null, "conf": 0.5}}, {"type": "Feature", "geometry": {"type": "Point", "coordinates": [37.5499621, 47.0957648]}, "properties": {"decree": "8", "date": "2025-01-20", "beneficiary": "Управляющая компания «Билдплан»", "project": null, "addr": "территория, примыкающая к проспекту Ленина и проспекту Металлургов", "area_sqm": null, "cadastral": null, "conf": 0.1}}, {"type": "Feature", "geometry": {"type": "Point", "coordinates": [37.5131883, 47.1202016]}, "properties": {"decree": "9", "date": "2025-01-20", "beneficiary": "Специализированный застройщик «Новое время 3»", "project": null, "addr": "Жовтневый район, улица 60 лет СССР, 24", "area_sqm": null, "cadastral": null, "conf": 0.5}}, {"type": "Feature", "geometry": {"type": "Point", "coordinates": [37.5227387, 47.092974]}, "properties": {"decree": "91", "date": "2025-03-24", "beneficiary": null, "project": null, "addr": "Приморский район, проспект Строителей, земельный участок 40А", "area_sqm": 3900.0, "cadastral": null, "conf": 0.5}}, {"type": "Feature", "geometry": {"type": "Point", "coordinates": [37.6342808, 47.1179735]}, "properties": {"decree": "92", "date": "2025-03-24", "beneficiary": null, "project": null, "addr": "Орджоникидзевский район, улица Таганрогская, земельный участок 245А", "area_sqm": null, "cadastral": null, "conf": 0.3}}, {"type": "Feature", "geometry": {"type": "Point", "coordinates": [37.6342808, 47.1179735]}, "properties": {"decree": "93", "date": "2025-03-24", "beneficiary": null, "project": null, "addr": "Орджоникидзевский район, улица Таганрогская, земельный Участок 247А", "area_sqm": null, "cadastral": null, "conf": 0.3}}, {"type": "Feature", "geometry": {"type": "Point", "coordinates": [37.6342808, 47.1179735]}, "properties": {"decree": "94", "date": "2025-03-24", "beneficiary": null, "project": null, "addr": "Орджоникидзевский район, улица Таганрогская, земельный участок 253А", "area_sqm": 4625.0, "cadastral": null, "conf": 0.3}}, {"type": "Feature", "geometry": {"type": "Point", "coordinates": [37.5299881, 47.0909528]}, "properties": {"decree": "166", "date": "2025-05-21", "beneficiary": "Специализированный застройщик-1 «Порфир»", "project": "Многоквартирный жилой дом со встроенными помещениями в городе Мариуполь по улице Бахчиванджи, д. 11а", "addr": "Российская Федерация, Донецкая Народная Републики, городской округ Мариуполь, город Мариуполь, улица Бахчиванджи, земельный участок 11а", "area_sqm": null, "cadastral": null, "conf": 0.5}}, {"type": "Feature", "geometry": {"type": "Point", "coordinates": [37.5272075, 47.0929055]}, "properties": {"decree": "167", "date": "2025-05-21", "beneficiary": "Специализированный застройщик-1 «Порфир»", "project": "Многоквартирный жилой дом со встроенными помещениями в городе Мариуполь по бульвару Богдана Хмельницкого, д. 12а", "addr": "бульвар Богдана Хмельницкого, земельный участок 12а", "area_sqm": null, "cadastral": null, "conf": 0.5}}, {"type": "Feature", "geometry": {"type": "Point", "coordinates": [37.5272075, 47.0929055]}, "properties": {"decree": "168", "date": "2025-05-21", "beneficiary": "Специализированный застройщик-1 «Порфир»", "project": "Многоквартирный жилой дом со встроенными помещениями в городе Мариуполь по бульвару Богдана Хмельницкого, д. 14а", "addr": "Российская Федерация, Донецкая Народная РЕсттубликя, городской округ Мариуполь, город Мариуполь, бульвар Богдана Хмельницкого, земельный участок 14а", "area_sqm": null, "cadastral": null, "conf": 0.5}}, {"type": "Feature", "geometry": {"type": "Point", "coordinates": [37.5272075, 47.0929055]}, "properties": {"decree": "169", "date": "2025-05-21", "beneficiary": "Специализированный застройщик-1 «Порфир»", "project": "Многоквартирный жилой дом со встроенными помещениями в городе Мариуполь по бульвару Богдана Хмельницкого, д. 16а", "addr": "бульвар Богдана Хмельницкого, земельный участок 16а", "area_sqm": null, "cadastral": null, "conf": 0.5}}, {"type": "Feature", "geometry": {"type": "Point", "coordinates": [37.5499621, 47.0957648]}, "properties": {"decree": "178", "date": "2025-05-26", "beneficiary": "Специализированный застройщик «Корпорация СМУ-5»", "project": "ЖК Нахимовский", "addr": "территория, ограниченная проспектом Ленина, улицей Казанцева, улицей Апатова, проспектом Нахимова, улицей Богдана Хмельницкого, улицей Бахчиванджи, улицей Зелинского", "area_sqm": 13114.0, "cadastral": null, "conf": 0.1}}, {"type": "Feature", "geometry": {"type": "Point", "coordinates": [37.5363646, 47.1142613]}, "properties": {"decree": "193", "date": "2025-06-03", "beneficiary": "Электрояр Донбасс", "project": "Организация производства электрощитовой продукции и трансформаторных подстанций в Донецкой Народной Республике", "addr": "улица Шота Руставели, 72", "area_sqm": null, "cadastral": null, "conf": 0.5}}, {"type": "Feature", "geometry": {"type": "Point", "coordinates": [37.5370811, 47.0824194]}, "properties": {"decree": "197", "date": "2025-06-05", "beneficiary": "МАРТОН", "project": "Реконструкция гостиницы «Европейская", "addr": "бульвар Приморский, 9", "area_sqm": null, "cadastral": null, "conf": 0.7}}, {"type": "Feature", "geometry": {"type": "Point", "coordinates": [37.629771, 47.1377684]}, "properties": {"decree": "214", "date": "2025-06-24", "beneficiary": "СПЕЦИАЛИЗИРОВАННЫЙ ЗАСТРОЙЩИК «ЭВОДОМ-5»", "project": "ЖК Чувства на 1 Мая 62А", "addr": "проспект 1 Мая, земельный участок 62А", "area_sqm": 3470.0, "cadastral": null, "conf": 0.5}}, {"type": "Feature", "geometry": {"type": "Point", "coordinates": [37.6356806, 47.1106838]}, "properties": {"decree": "215", "date": "2025-06-24", "beneficiary": "СПЕЦИАЛИЗИРОВАННЫЙ ЗАСТРОЙЩИК «ЭВОДОМ-5»", "project": "ЖК Чувства на Лечебном 9А", "addr": "переулок Лечебный, земельный участок 9А", "area_sqm": 2214.0, "cadastral": null, "conf": 0.5}}, {"type": "Feature", "geometry": {"type": "Point", "coordinates": [37.6356806, 47.1106838]}, "properties": {"decree": "216", "date": "2025-06-24", "beneficiary": "СПЕЦИАЛИЗИРОВАННЫЙ ЗАСТРОЙЩИК «ЭВОДОМ-5»", "project": "ЖК Чувства на Лечебном 11А", "addr": "переулок Лечебный, земельный участок 11А", "area_sqm": 2685.0, "cadastral": null, "conf": 0.5}}, {"type": "Feature", "geometry": {"type": "Point", "coordinates": [37.5386882, 47.0832653]}, "properties": {"decree": "217", "date": "2025-06-24", "beneficiary": "МИР", "project": "Реконструкция гостиницы «Чайка", "addr": "бульвар Приморский, земельный участок 7", "area_sqm": null, "cadastral": null, "conf": 0.3}}, {"type": "Feature", "geometry": {"type": "Point", "coordinates": [37.7293924, 47.1898674]}, "properties": {"decree": "218", "date": "2025-06-24", "beneficiary": "Специализированный застройщик Солнечная", "project": "Солнечный квартал-1", "addr": "улица Солнечная, 11", "area_sqm": 8132.0, "cadastral": null, "conf": 0.7}}, {"type": "Feature", "geometry": {"type": "Point", "coordinates": [37.629771, 47.1377684]}, "properties": {"decree": "255", "date": "2025-07-28", "beneficiary": "СПЕЦИАЛИЗИРОВАННЫЙ ЗАСТРОЙЩИК «ЭВОДОМ-5»", "project": "ЖК Чувства на 1 Мая 56А", "addr": "проспект 1 Мая, земельный участок 5ба", "area_sqm": 3624.0, "cadastral": null, "conf": 0.5}}, {"type": "Feature", "geometry": {"type": "Point", "coordinates": [37.629771, 47.1377684]}, "properties": {"decree": "256", "date": "2025-07-28", "beneficiary": "СПЕЦИАЛИЗИРОВАННЫЙ ЗАСТРОЙЩИК «ЭВОДОМ-5»", "project": "ЖК Чувства на 1 Мая 58А", "addr": "проспект 1 Мая, земельный участок 58а", "area_sqm": 4589.0, "cadastral": null, "conf": 0.5}}, {"type": "Feature", "geometry": {"type": "Point", "coordinates": [37.5065311, 47.0631561]}, "properties": {"decree": "258", "date": "2025-07-29", "beneficiary": "Специализированный застройщик «Садовое КОЛЬЦО «Проспект»", "project": "Строительство многоквартирного жилого дома «Дом у моря", "addr": "проспект Лунина, дом 25, 27, 29", "area_sqm": null, "cadastral": null, "conf": 0.3}}, {"type": "Feature", "geometry": {"type": "Point", "coordinates": [37.629771, 47.1377684]}, "properties": {"decree": "266", "date": "2025-08-04", "beneficiary": "АЛЬФА-БЛОК", "project": "Строительство завода по производству газосиликатного блока на территории города Мариуполь Донецкой Народной Республики", "addr": "проспект 1 Мая", "area_sqm": null, "cadastral": null, "conf": 0.5}}, {"type": "Feature", "geometry": {"type": "Point", "coordinates": [37.5586934, 47.1056953]}, "properties": {"decree": "281", "date": "2025-08-11", "beneficiary": null, "project": "Строительство жилого комплекса «Панорама", "addr": "улица Артема, 134А, улица Артема, 132А, улица Артема, 130Б, бульвар Шевченко, 71А", "area_sqm": null, "cadastral": null, "conf": 0.5}}, {"type": "Feature", "geometry": {"type": "Point", "coordinates": [37.5499621, 47.0957648]}, "properties": {"decree": "314", "date": "2025-09-13", "beneficiary": null, "project": null, "addr": null, "area_sqm": null, "cadastral": null, "conf": 0.3}}, {"type": "Feature", "geometry": {"type": "Point", "coordinates": [37.5607181, 47.1260618]}, "properties": {"decree": "320", "date": "2025-09-16", "beneficiary": "Специализированный застройщик «Строительное управление - 2007 Инвест»", "project": "Жилая застройка по адресу: ул. Покрышкина, Ильичевский район, г. Мариуполь Литер «2", "addr": "улица Покрышкина, ограниченная улицами Чайковского, Миусской, Глинки и Ярославским переулком", "area_sqm": 13413.0, "cadastral": null, "conf": 0.5}}, {"type": "Feature", "geometry": {"type": "Point", "coordinates": [37.5607181, 47.1260618]}, "properties": {"decree": "334", "date": "2025-10-01", "beneficiary": "Специализированный застройщик «Строительное управление-2007 Инвест»", "project": "Жилая застройка по адресу: ул. Покрышкина, Ильичевский район, г. Мариуполь Литер «3", "addr": "улица Покрышкина, ограниченная улицами Чайковского, Миусской, Глинки и Ярославским переулком", "area_sqm": 12818.0, "cadastral": "93:37:0010229:182", "conf": 0.5}}, {"type": "Feature", "geometry": {"type": "Point", "coordinates": [37.5499621, 47.0957648]}, "properties": {"decree": "365", "date": "2025-10-16", "beneficiary": "Специализированный застройщик «Синее море» Мариуполь»", "project": "Строительство многоквартирного жилого дома по адресу: Российская Федерация, Донецкая Народная Республика, городской окру", "addr": "Орджоникидзевский район, бульвар 50 лет Октября, 44А", "area_sqm": null, "cadastral": "93:37:0010307:330", "conf": 0.1}}, {"type": "Feature", "geometry": {"type": "Point", "coordinates": [37.5142103, 47.0990826]}, "properties": {"decree": "390", "date": "2025-11-06", "beneficiary": "Специализированный застройщик-1 «Порфир»", "project": "Многоэтажный жилой дом со встроенными помещениями в городе Мариуполь по проспекту Строителей, 88", "addr": "Жовтневый район, территория ограниченная: проспект Ленина, улица Казанцева, улица Апатова, проспект Нахимова, улица Богдана Хмельницкого, улица Бахчиванджи, улица Зелинского", "area_sqm": 9931.0, "cadastral": "93:37:0010101:6089", "conf": 0.5}}, {"type": "Feature", "geometry": {"type": "Point", "coordinates": [37.5142103, 47.0990826]}, "properties": {"decree": "391", "date": "2025-11-06", "beneficiary": "Специализированный застройщик-1 «Порфир»", "project": "Многоэтажный жилой дом со встроенными помещениями в городе Мариуполь по проспекту Строителей, 80", "addr": "Жовтневый район, территория ограниченная: проспект Ленина, улица Казанцева, улица Апатова, проспект Нахимова, улица Богдана Хмельницкого, улица Бахчиванджи, улица Зелинского", "area_sqm": 7231.0, "cadastral": "93:37:0010101:6088", "conf": 0.5}}, {"type": "Feature", "geometry": {"type": "Point", "coordinates": [37.5142103, 47.0990826]}, "properties": {"decree": "392", "date": "2025-11-06", "beneficiary": "Специализированный застройщик-1 «Порфир»", "project": "Многоэтажный жилой Ддом со встроенными помещениями в городе Мариуполь по проспекту Строителей, 78", "addr": "Жовтневый район, территория ограниченная: проспект Ленина, улица Казанцева, улица Апатова, проспект Нахимова, улица Богдана Хмельницкого, улица Бахчиванджи, улица Зелинского", "area_sqm": 3234.0, "cadastral": "93:37:0010101:6161", "conf": 0.5}}, {"type": "Feature", "geometry": {"type": "Point", "coordinates": [37.5142103, 47.0990826]}, "properties": {"decree": "393", "date": "2025-11-06", "beneficiary": "Специализированный застройщик-1 «Порфир»", "project": "Многоэтажный жилой дом со встроенными помещениями в городе Мариуполь по проспекту Строителей, 76", "addr": "Жовтневый район, территория ограниченная: проспект Ленина, улица Казанцева, улица Апатова, проспект Нахимова, улица Богдана Хмельницкого, улица Бахчиванджи, улица Зелинского", "area_sqm": 6259.0, "cadastral": "93:37:0010101:6162", "conf": 0.5}}, {"type": "Feature", "geometry": {"type": "Point", "coordinates": [37.5142103, 47.0990826]}, "properties": {"decree": "394", "date": "2025-11-06", "beneficiary": "Специализированный застройщик-1 «Порфир»", "project": "Многоэтажный жилой дом со встроенными помещениями в городе Мариуполь по проспекту Строителей, 74", "addr": "Жовтневый район, территория ограниченная: проспект Ленина, улица Казанцева, улица Апатова, проспект Нахимова, улица Богдана Хмельницкого, улица Бахчиванджи, улица Зелинского", "area_sqm": 6162.0, "cadastral": "93:37:0010101:6160", "conf": 0.5}}, {"type": "Feature", "geometry": {"type": "Point", "coordinates": [37.5499621, 47.0957648]}, "properties": {"decree": "395", "date": "2025-11-06", "beneficiary": "СПЕЦИАЛИЗИРОВАННЫЙ ЗАСТРОЙЩИК «ЭВОДОМ-5»", "project": "ЖК Чувства. Азарт", "addr": "бульвар 50 лет Октября, земельный участок 40а", "area_sqm": 2685.0, "cadastral": "93:37:0010305:842", "conf": 0.1}}, {"type": "Feature", "geometry": {"type": "Point", "coordinates": [37.6569846, 47.1061429]}, "properties": {"decree": "396", "date": "2025-11-06", "beneficiary": "СПЕЦИАЛИЗИРОВАННЫЙ ЗАСТРОЙЩИК «ЭВОДОМ-5» о.предоставлении указанному юридическому лицу", "project": "ЖК Чувства. Успех", "addr": "проспект Победы, земельный участок 37а", "area_sqm": 4882.0, "cadastral": "93:37:0010305:841", "conf": 0.5}}, {"type": "Feature", "geometry": {"type": "Point", "coordinates": [37.6569846, 47.1061429]}, "properties": {"decree": "397", "date": "2025-11-06", "beneficiary": "СПЕЦИАЛИЗИРОВАННЫЙ ЗАСТРОЙЩИК «ЭВОДОМ-5»", "project": "Особняк. Мари", "addr": "Орджоникидзевский район, проспект Победы, 30А", "area_sqm": 1190.0, "cadastral": "93:37:0010307:577", "conf": 0.5}}, {"type": "Feature", "geometry": {"type": "Point", "coordinates": [37.5142103, 47.0990826]}, "properties": {"decree": "398", "date": "2025-11-10", "beneficiary": "Специализированный застройщик «Главный перекресток»", "project": null, "addr": "проспект Ленина, дом 87А", "area_sqm": null, "cadastral": "93:37:0010106:254", "conf": 0.5}}, {"type": "Feature", "geometry": {"type": "Point", "coordinates": [37.5142103, 47.0990826]}, "properties": {"decree": "399", "date": "2025-11-10", "beneficiary": "Специализированный застройщик «Главный перекресток»", "project": "Строительство многоквартирного жилого дома «Башня", "addr": "проспект Ленина, дом 89", "area_sqm": 3315.0, "cadastral": "93:37:0010106:253", "conf": 0.5}}, {"type": "Feature", "geometry": {"type": "Point", "coordinates": [37.5499621, 47.0957648]}, "properties": {"decree": "419", "date": "2025-11-22", "beneficiary": "Специализированный застройщик «Восход»", "project": "ЖИЛАЯ ЗАСТРОЙКА ПО АДРЕСУ: ДНР, г. Мариуполь, ул. Пейзажная, жилой дом Литер 2", "addr": "ориентир: территория, ограниченная ул", "area_sqm": 10010.0, "cadastral": "93:37:0010323:9089", "conf": 0.1}}, {"type": "Feature", "geometry": {"type": "Point", "coordinates": [37.5499621, 47.0957648]}, "properties": {"decree": "420", "date": "2025-11-22", "beneficiary": "Специализированный застройщик «Восход»", "project": "ЖИЛАЯ ЗАСТРОЙКА ПО АДРЕСУ: ДНР, г. Мариуполь, ул. Пейзажная, жилой дом Литер 1", "addr": "ориентир: территория, ограниченная ул", "area_sqm": 23517.0, "cadastral": "93:37:0010323:9088", "conf": 0.1}}, {"type": "Feature", "geometry": {"type": "Point", "coordinates": [37.5499621, 47.0957648]}, "properties": {"decree": "115", "date": "2026-03-05", "beneficiary": null, "project": null, "addr": null, "area_sqm": null, "cadastral": null, "conf": 0.3}}, {"type": "Feature", "geometry": {"type": "Point", "coordinates": [37.5499621, 47.0957648]}, "properties": {"decree": "125", "date": "2026-04-24", "beneficiary": "Специализированный застройщик-1 «Порфир»", "project": "Комплекс многоэтажных жилых домов со встроенными помещениями на территории микрорайона Черемушки города Мариуполя Донецк", "addr": "квартал между ул", "area_sqm": 41678.0, "cadastral": "93:37:0010406:5954", "conf": 0.1}}, {"type": "Feature", "geometry": {"type": "Point", "coordinates": [37.642765, 47.0987228]}, "properties": {"decree": "127", "date": "2026-04-24", "beneficiary": "СГМ МОНТАЖ", "project": "ЖК «Солнечный", "addr": "микрорайон «6-й участок»", "area_sqm": 11147.0, "cadastral": "93:37:0010307:1351+93:37:0010307:1352", "conf": 0.3}}, {"type": "Feature", "geometry": {"type": "Point", "coordinates": [37.6499434, 47.1188205]}, "properties": {"decree": "161", "date": "2026-05-14", "beneficiary": "ЭВЕРЕСТ ДОМОСТРОЕНИЕ", "project": "Проект строительства сборных железобетонных конструкций жилых домов", "addr": "улица Станиславского, земельный участок 56", "area_sqm": 82448.0, "cadastral": "93:37:0010318:683", "conf": 0.5}}, {"type": "Feature", "geometry": {"type": "Point", "coordinates": [37.5499621, 47.0957648]}, "properties": {"decree": "162", "date": "2026-05-14", "beneficiary": "Специализированный застройщик-1 «Порфир»", "project": "Многоквартирный жилой дом со встроенными помещениями в городе Мариуполь по улице Зелинского, 23", "addr": "Российская Федерация, Донецкая Народная Республика, городской округ Мариуполь, город Мариуполь", "area_sqm": 3773.0, "cadastral": "93:37:0010101:6212", "conf": 0.3}}, {"type": "Feature", "geometry": {"type": "Point", "coordinates": [37.5499621, 47.0957648]}, "properties": {"decree": "163", "date": "2026-05-14", "beneficiary": "Специализированный застройщик-1 «Порфир»", "project": "Многоквартирный жилой дом со встроенными помещениями в городе Мариуполь по улице Зелинского, 30А", "addr": "Российская Федерация, Донецкая Народная Республика, городской округ Мариуполь, город Мариуполь", "area_sqm": 12543.0, "cadastral": "93:37:0010101:6214", "conf": 0.3}}, {"type": "Feature", "geometry": {"type": "Point", "coordinates": [37.5499621, 47.0957648]}, "properties": {"decree": "164", "date": "2026-05-14", "beneficiary": "Специализированный застройщик-1 «Порфир»", "project": "Многоквартирный жилой дом со встроенными помещениями в городе Мариуполь по улице Зелинского, ЗОБ", "addr": "Российская Федерация, Донецкая Народная Республика, городской округ Мариуполь, город Мариуполь", "area_sqm": 6561.0, "cadastral": "93:37:0010101:6213", "conf": 0.3}}, {"type": "Feature", "geometry": {"type": "Point", "coordinates": [37.5418217, 47.0871066]}, "properties": {"decree": "178", "date": "2026-05-25", "beneficiary": "Специализированный застройщик «НОВОЕ ВРЕМЯ 3»", "project": "Строительство многоквартирного жилого дома, расположенного по адресу: Донецкая Народная Республика, город Мариуполь, про", "addr": "проспект Металлургов, 60Б", "area_sqm": 2001.0, "cadastral": "93:37:0010106:5473", "conf": 0.5}}, {"type": "Feature", "geometry": {"type": "Point", "coordinates": [37.6499434, 47.1188205]}, "properties": {"decree": "192", "date": "2026-06-05", "beneficiary": "ЭВЕРЕСТ ДОМОСТРОЕНИЕ", "project": "Проект строительства сборных железобетонных конструкций жилых домов", "addr": "улица Станиславского, земельный участок 56", "area_sqm": 17552.0, "cadastral": "93:37:0010318:779", "conf": 0.5}}, {"type": "Feature", "geometry": {"type": "Point", "coordinates": [37.6569846, 47.1061429]}, "properties": {"decree": "203", "date": "2026-06-09", "beneficiary": null, "project": "Строительство жилого комплекса в Донецкой Народной Республике, городе Мариуполь, Проспект Победы, 127", "addr": "проспект Победы, дом 127", "area_sqm": 3225.0, "cadastral": "93:27:0010311:572", "conf": 0.5}}]}