{"type": "FeatureCollection", "features": [{"type": "Feature", "geometry": {"type": "Polygon", "coordinates": [[[37.561538, 47.112908], [37.558391, 47.113258], [37.55831, 47.11329], [37.558269, 47.113307], [37.560232, 47.11328], [37.560508, 47.113245], [37.561538, 47.112908]]]}, "properties": {"decree_number": "170", "decree_date": null, "beneficiary_name": "Специализированный застройщик «Строительное управление-2007»", "project_name": "Многоквартирный жилой дом со встроенными помещениями общественного назначения, расположенный по адресу: г. Мариуполь, пр. Металлургов. Литер «1", "boundary_streets": ["проспект Металлургов", "улица Кальчанской", "улица Артема", "улица Евпаторийской", "улица Греческой", "улица Митрополитской", "улица Фонтанной"], "geocode_method": "street_boundary_hull", "geocode_confidence": 0.5, "note": "Approximate block outline from OSM street geometry — orientation only, not parcel-exact."}}, {"type": "Feature", "geometry": {"type": "Polygon", "coordinates": [[[37.561538, 47.112908], [37.558391, 47.113258], [37.55831, 47.11329], [37.558269, 47.113307], [37.560232, 47.11328], [37.560508, 47.113245], [37.561538, 47.112908]]]}, "properties": {"decree_number": "171", "decree_date": null, "beneficiary_name": "Специализированный застройщик «Строительное управление-2007»", "project_name": "Многоквартирный жилой дом со встроенными помещениями общественного назначения, расположенный по адресу: г. Мариуполь, пр. Металлургов. Литер «2", "boundary_streets": ["проспект Металлургов", "улица Кальчанской", "улица Артема", "улица Евпаторийской", "улица Греческой", "улица Митрополитской", "улица Фонтанной"], "geocode_method": "street_boundary_hull", "geocode_confidence": 0.5, "note": "Approximate block outline from OSM street geometry — orientation only, not parcel-exact."}}, {"type": "Feature", "geometry": {"type": "Polygon", "coordinates": [[[37.567596, 47.110391], [37.55949, 47.113225], [37.560232, 47.11328], [37.560508, 47.113245], [37.561538, 47.112908], [37.563256, 47.11221], [37.566937, 47.110695], [37.567325, 47.110516], [37.567434, 47.110466], [37.567596, 47.110391]]]}, "properties": {"decree_number": "172", "decree_date": null, "beneficiary_name": "Специализированный застройщик «Строительное управление-2007»", "project_name": "Многоквартирный жилой дом со встроенными помещениями общественного назначения, расположенный по адресу: г. Мариуполь, пр. Металлургов. Литер «3", "boundary_streets": ["проспект Металлургов", "улица Кальчанской", "улица Артема", "улица Евпаторийской", "улица Греческой"], "geocode_method": "street_boundary_hull", "geocode_confidence": 0.5, "note": "Approximate block outline from OSM street geometry — orientation only, not parcel-exact."}}, {"type": "Feature", "geometry": {"type": "Polygon", "coordinates": [[[37.561538, 47.112908], [37.558391, 47.113258], [37.55831, 47.11329], [37.558269, 47.113307], [37.560232, 47.11328], [37.560508, 47.113245], [37.561538, 47.112908]]]}, "properties": {"decree_number": "173", "decree_date": null, "beneficiary_name": "Специализированный застройщик «Строительное управление-2007»", "project_name": "Многоквартирный жилой дом со встроенными помещениями общественного назначения, расположенный по адресу: г. Мариуполь, пр. Металлургов. Литер «22", "boundary_streets": ["проспект Металлургов", "улица Кальчанской", "улица Артема", "улица Евпаторийской", "улица Греческой", "улица Митрополитской", "улица Фонтанной"], "geocode_method": "street_boundary_hull", "geocode_confidence": 0.5, "note": "Approximate block outline from OSM street geometry — orientation only, not parcel-exact."}}, {"type": "Feature", "geometry": {"type": "Polygon", "coordinates": [[[37.561538, 47.112908], [37.558391, 47.113258], [37.55831, 47.11329], [37.558269, 47.113307], [37.560232, 47.11328], [37.560508, 47.113245], [37.561538, 47.112908]]]}, "properties": {"decree_number": "174", "decree_date": null, "beneficiary_name": "Специализированный застройщик «Строительное управление-2007»", "project_name": "Многоквартирный жилой дом со встроенными помещениями общественного назначения, расположенный по адресу: г. Мариуполь, пр. Металлургов. Литер «23", "boundary_streets": ["проспект Металлургов", "улица Кальчанской", "улица Артема", "улица Евпаторийской", "улица Греческой", "улица Митрополитской", "улица Фонтанной"], "geocode_method": "street_boundary_hull", "geocode_confidence": 0.5, "note": "Approximate block outline from OSM street geometry — orientation only, not parcel-exact."}}, {"type": "Feature", "geometry": {"type": "Polygon", "coordinates": [[[37.526162, 47.115732], [37.525505, 47.115778], [37.518835, 47.116255], [37.518616, 47.11627], [37.517291, 47.117068], [37.517306, 47.117176], [37.519732, 47.122236], [37.519887, 47.122225], [37.527064, 47.121724], [37.528292, 47.11641], [37.528033, 47.116325], [37.526162, 47.115732]]]}, "properties": {"decree_number": "220", "decree_date": null, "beneficiary_name": "Специализированный застройщик Солнечная", "project_name": "Солнечный квартал-2", "boundary_streets": ["улица Солнечной", "улица Урицкого", "улица Гранитной", "бульвар Шевченко"], "geocode_method": "street_boundary_hull", "geocode_confidence": 0.5, "note": "Approximate block outline from OSM street geometry — orientation only, not parcel-exact."}}, {"type": "Feature", "geometry": {"type": "Polygon", "coordinates": [[[37.513703, 47.076687], [37.509994, 47.083431], [37.520978, 47.082958], [37.520762, 47.082756], [37.519329, 47.081505], [37.518675, 47.080937], [37.516773, 47.079297], [37.515397, 47.078115], [37.514964, 47.077745], [37.514308, 47.077192], [37.513703, 47.076687]]]}, "properties": {"decree_number": "289", "decree_date": "2023-09-07", "beneficiary_name": "Специализированный застройщик-1 «Порфир»", "project_name": "Многоквартирный жилой дом со встроенными помещениями по просп. Нахимова 82 в г. Мариуполь", "boundary_streets": ["проспект Нахимова", "улица Черноморской", "проспект Строителей", "улица Кронштадтской"], "geocode_method": "street_boundary_hull", "geocode_confidence": 0.5, "note": "Approximate block outline from OSM street geometry — orientation only, not parcel-exact."}}, {"type": "Feature", "geometry": {"type": "Polygon", "coordinates": [[[37.526162, 47.115732], [37.525505, 47.115778], [37.518835, 47.116255], [37.518616, 47.11627], [37.517291, 47.117068], [37.517306, 47.117176], [37.519732, 47.122236], [37.519887, 47.122225], [37.527064, 47.121724], [37.528292, 47.11641], [37.528033, 47.116325], [37.526162, 47.115732]]]}, "properties": {"decree_number": "10", "decree_date": "2025-01-20", "beneficiary_name": "Специализированный застройщик «Новое время 3»", "project_name": null, "boundary_streets": ["улица Солнечной", "улица Урицкого", "улица Гранитной", "бульвар Шевченко"], "geocode_method": "street_boundary_hull", "geocode_confidence": 0.5, "note": "Approximate block outline from OSM street geometry — orientation only, not parcel-exact."}}, {"type": "Feature", "geometry": {"type": "Polygon", "coordinates": [[[37.507737, 47.099281], [37.507573, 47.099293], [37.507614, 47.09955], [37.525373, 47.116521], [37.526052, 47.116577], [37.526287, 47.11656], [37.526603, 47.116537], [37.528292, 47.11641], [37.550101, 47.110524], [37.552032, 47.109859], [37.552645, 47.109556], [37.507737, 47.099281]]]}, "properties": {"decree_number": "14", "decree_date": "2025-01-20", "beneficiary_name": "Специализированный застройщик «Олимпстрой НР»", "project_name": null, "boundary_streets": ["бульвар Шевченко", "улица Куприна", "проспект Строителей"], "geocode_method": "street_boundary_hull", "geocode_confidence": 0.5, "note": "Approximate block outline from OSM street geometry — orientation only, not parcel-exact."}}, {"type": "Feature", "geometry": {"type": "Polygon", "coordinates": [[[37.491172, 47.099558], [37.490968, 47.099653], [37.491193, 47.099689], [37.495521, 47.100373], [37.496073, 47.100451], [37.496407, 47.10047], [37.496732, 47.100472], [37.497142, 47.100453], [37.499036, 47.100306], [37.498843, 47.100194], [37.491172, 47.099558]]]}, "properties": {"decree_number": "178", "decree_date": "2025-05-26", "beneficiary_name": "Специализированный застройщик «Корпорация СМУ-5»", "project_name": "ЖК Нахимовский", "boundary_streets": ["проспект Ленина", "улица Казанцева", "улица Апатова", "проспект Нахимова", "улица Богдана Хмельницкого", "улица Бахчиванджи", "улица Зелинского"], "geocode_method": "street_boundary_hull", "geocode_confidence": 0.5, "note": "Approximate block outline from OSM street geometry — orientation only, not parcel-exact."}}, {"type": "Feature", "geometry": {"type": "Polygon", "coordinates": [[[37.491172, 47.099558], [37.490968, 47.099653], [37.491193, 47.099689], [37.495521, 47.100373], [37.496073, 47.100451], [37.496407, 47.10047], [37.496732, 47.100472], [37.497142, 47.100453], [37.499036, 47.100306], [37.498843, 47.100194], [37.491172, 47.099558]]]}, "properties": {"decree_number": "390", "decree_date": "2025-11-06", "beneficiary_name": "Специализированный застройщик-1 «Порфир»", "project_name": "Многоэтажный жилой дом со встроенными помещениями в городе Мариуполь по проспекту Строителей, 88", "boundary_streets": ["проспект Ленина", "улица Казанцева", "улица Апатова", "проспект Нахимова", "улица Богдана Хмельницкого", "улица Бахчиванджи", "улица Зелинского"], "geocode_method": "street_boundary_hull", "geocode_confidence": 0.5, "note": "Approximate block outline from OSM street geometry — orientation only, not parcel-exact."}}, {"type": "Feature", "geometry": {"type": "Polygon", "coordinates": [[[37.491172, 47.099558], [37.490968, 47.099653], [37.491193, 47.099689], [37.495521, 47.100373], [37.496073, 47.100451], [37.496407, 47.10047], [37.496732, 47.100472], [37.497142, 47.100453], [37.499036, 47.100306], [37.498843, 47.100194], [37.491172, 47.099558]]]}, "properties": {"decree_number": "391", "decree_date": "2025-11-06", "beneficiary_name": "Специализированный застройщик-1 «Порфир»", "project_name": "Многоэтажный жилой дом со встроенными помещениями в городе Мариуполь по проспекту Строителей, 80", "boundary_streets": ["проспект Ленина", "улица Казанцева", "улица Апатова", "проспект Нахимова", "улица Богдана Хмельницкого", "улица Бахчиванджи", "улица Зелинского"], "geocode_method": "street_boundary_hull", "geocode_confidence": 0.5, "note": "Approximate block outline from OSM street geometry — orientation only, not parcel-exact."}}, {"type": "Feature", "geometry": {"type": "Polygon", "coordinates": [[[37.491172, 47.099558], [37.490968, 47.099653], [37.491193, 47.099689], [37.495521, 47.100373], [37.496073, 47.100451], [37.496407, 47.10047], [37.496732, 47.100472], [37.497142, 47.100453], [37.499036, 47.100306], [37.498843, 47.100194], [37.491172, 47.099558]]]}, "properties": {"decree_number": "392", "decree_date": "2025-11-06", "beneficiary_name": "Специализированный застройщик-1 «Порфир»", "project_name": "Многоэтажный жилой Ддом со встроенными помещениями в городе Мариуполь по проспекту Строителей, 78", "boundary_streets": ["проспект Ленина", "улица Казанцева", "улица Апатова", "проспект Нахимова", "улица Богдана Хмельницкого", "улица Бахчиванджи", "улица Зелинского"], "geocode_method": "street_boundary_hull", "geocode_confidence": 0.5, "note": "Approximate block outline from OSM street geometry — orientation only, not parcel-exact."}}, {"type": "Feature", "geometry": {"type": "Polygon", "coordinates": [[[37.491172, 47.099558], [37.490968, 47.099653], [37.491193, 47.099689], [37.495521, 47.100373], [37.496073, 47.100451], [37.496407, 47.10047], [37.496732, 47.100472], [37.497142, 47.100453], [37.499036, 47.100306], [37.498843, 47.100194], [37.491172, 47.099558]]]}, "properties": {"decree_number": "393", "decree_date": "2025-11-06", "beneficiary_name": "Специализированный застройщик-1 «Порфир»", "project_name": "Многоэтажный жилой дом со встроенными помещениями в городе Мариуполь по проспекту Строителей, 76", "boundary_streets": ["проспект Ленина", "улица Казанцева", "улица Апатова", "проспект Нахимова", "улица Богдана Хмельницкого", "улица Бахчиванджи", "улица Зелинского"], "geocode_method": "street_boundary_hull", "geocode_confidence": 0.5, "note": "Approximate block outline from OSM street geometry — orientation only, not parcel-exact."}}, {"type": "Feature", "geometry": {"type": "Polygon", "coordinates": [[[37.491172, 47.099558], [37.490968, 47.099653], [37.491193, 47.099689], [37.495521, 47.100373], [37.496073, 47.100451], [37.496407, 47.10047], [37.496732, 47.100472], [37.497142, 47.100453], [37.499036, 47.100306], [37.498843, 47.100194], [37.491172, 47.099558]]]}, "properties": {"decree_number": "394", "decree_date": "2025-11-06", "beneficiary_name": "Специализированный застройщик-1 «Порфир»", "project_name": "Многоэтажный жилой дом со встроенными помещениями в городе Мариуполь по проспекту Строителей, 74", "boundary_streets": ["проспект Ленина", "улица Казанцева", "улица Апатова", "проспект Нахимова", "улица Богдана Хмельницкого", "улица Бахчиванджи", "улица Зелинского"], "geocode_method": "street_boundary_hull", "geocode_confidence": 0.5, "note": "Approximate block outline from OSM street geometry — orientation only, not parcel-exact."}}]}