{"type": "FeatureCollection", "features": [{"type": "Feature", "geometry": {"type": "Point", "coordinates": [37.5529, 47.1055]}, "properties": {"addr": "г. Мариуполь, пр-кт Металлургов, литера 13", "dev": "СЗ СУ-2007", "flats": 108, "living_sqm": 5995.53, "commissioned": "2024-06-28", "decree": "290", "decree_date": "2023-09-07"}}, {"type": "Feature", "geometry": {"type": "Point", "coordinates": [37.5519, 47.1049]}, "properties": {"addr": "г. Мариуполь, пр-кт Металлургов, литера 14", "dev": "СЗ СУ-2007", "flats": 96, "living_sqm": 6025.16, "commissioned": "2024-12-26", "decree": "290", "decree_date": "2023-09-07"}}, {"type": "Feature", "geometry": {"type": "Point", "coordinates": [37.5516, 47.1051]}, "properties": {"addr": "г. Мариуполь, пр-кт Металлургов, литера 25", "dev": "СЗ СУ-2007", "flats": 196, "living_sqm": 12051.34, "commissioned": "2024-12-26", "decree": "290", "decree_date": "2023-09-07"}}, {"type": "Feature", "geometry": {"type": "Point", "coordinates": [37.5264, 47.0902]}, "properties": {"addr": "г. Мариуполь, б-р Богдана Хмельницкого, д. 6, корпус А", "dev": "СЗ-1 ПОРФИР", "flats": 84, "living_sqm": 3998.18, "commissioned": "2024-11-11", "decree": "125", "decree_date": "2026-04-24"}}, {"type": "Feature", "geometry": {"type": "Point", "coordinates": [37.5255, 47.09]}, "properties": {"addr": "г. Мариуполь, б-р Богдана Хмельницкого, д. 8А", "dev": "СЗ-1 ПОРФИР", "flats": 42, "living_sqm": 2676.77, "commissioned": "2024-11-08", "decree": "125", "decree_date": "2026-04-24"}}, {"type": "Feature", "geometry": {"type": "Point", "coordinates": [37.5522, 47.106]}, "properties": {"addr": "г. Мариуполь, пр-кт Металлургов, литера 17", "dev": "СЗ СУ-2007", "flats": 246, "living_sqm": 15679.02, "commissioned": "2025-11-07", "decree": "290", "decree_date": "2023-09-07"}}, {"type": "Feature", "geometry": {"type": "Point", "coordinates": [37.5423, 47.0981]}, "properties": {"addr": "г. Мариуполь, пр-кт Ленина, д. 77Б", "dev": "СЗ НР-ДЕВЕЛОПМЕНТ", "flats": 112, "living_sqm": 5465.36, "commissioned": "2026-03-26", "decree": null, "decree_date": null}}, {"type": "Feature", "geometry": {"type": "Point", "coordinates": [37.5543, 47.1062]}, "properties": {"addr": "г. Мариуполь, пр-кт Металлургов, литера 15", "dev": "СЗ СУ-2007", "flats": 224, "living_sqm": 11873.71, "commissioned": "2025-09-26", "decree": "290", "decree_date": "2023-09-07"}}, {"type": "Feature", "geometry": {"type": "Point", "coordinates": [37.5217, 47.0848]}, "properties": {"addr": "г. Мариуполь, пр-кт Нахимова, д. 134а", "dev": "СЗ-1 ПОРФИР", "flats": 110, "living_sqm": 5587.3, "commissioned": "2024-12-20", "decree": "125", "decree_date": "2026-04-24"}}, {"type": "Feature", "geometry": {"type": "Point", "coordinates": [37.5375, 47.0945]}, "properties": {"addr": "г. Мариуполь, Пр-кт Нахимова, д. 101, литера Б", "dev": "СЗ ТЕМП", "flats": 70, "living_sqm": 3424.27, "commissioned": "2025-12-29", "decree": null, "decree_date": null}}, {"type": "Feature", "geometry": {"type": "Point", "coordinates": [37.5273, 47.0974]}, "properties": {"addr": "г. Мариуполь, пр-кт Ленина, д. 96, литера А", "dev": "СЗ ТЕМП", "flats": 101, "living_sqm": 5532.68, "commissioned": null, "decree": null, "decree_date": null}}, {"type": "Feature", "geometry": {"type": "Point", "coordinates": [37.5093, 47.1]}, "properties": {"addr": "г. Мариуполь, пр-кт Ленина, д. 129, литера А", "dev": "СЗ МИРАСТРОЙ 2", "flats": 130, "living_sqm": 6585.45, "commissioned": null, "decree": null, "decree_date": null}}, {"type": "Feature", "geometry": {"type": "Point", "coordinates": [37.531, 47.0969]}, "properties": {"addr": "г. Мариуполь, пр-кт Ленина, д. 86, литера А", "dev": "СЗ ТЕМП-80", "flats": 257, "living_sqm": 11308.7, "commissioned": null, "decree": null, "decree_date": null}}, {"type": "Feature", "geometry": {"type": "Point", "coordinates": [37.5296, 47.0961]}, "properties": {"addr": "г. Мариуполь, б-р Богдана Хмельницкого, д. 33б", "dev": "СЗ ТЕМП-80", "flats": 195, "living_sqm": 8252.4, "commissioned": null, "decree": null, "decree_date": null}}, {"type": "Feature", "geometry": {"type": "Point", "coordinates": [37.514, 47.0924]}, "properties": {"addr": "г. Мариуполь, ул Бахчиванджи", "dev": "СЗ ТЮС-НР2", "flats": 64, "living_sqm": 3283.12, "commissioned": "2026-03-02", "decree": null, "decree_date": null}}, {"type": "Feature", "geometry": {"type": "Point", "coordinates": [37.6868, 47.1266]}, "properties": {"addr": "г. Мариуполь, ул Киевская, д. 59Б", "dev": "СЗ РСК", "flats": 81, "living_sqm": 3717.59, "commissioned": "2026-06-05", "decree": "339", "decree_date": "2024-09-02"}}, {"type": "Feature", "geometry": {"type": "Point", "coordinates": [37.5105, 47.1]}, "properties": {"addr": "г. Мариуполь, пр-кт Ленина, д. 127, литера Б", "dev": "СЗ МИРАСТРОЙ", "flats": 159, "living_sqm": 7988.14, "commissioned": null, "decree": null, "decree_date": null}}, {"type": "Feature", "geometry": {"type": "Point", "coordinates": [37.5576, 47.11]}, "properties": {"addr": "г. Мариуполь, пр-кт Металлургов, литера 9", "dev": "СЗ СУ-2007", "flats": 190, "living_sqm": 8584.52, "commissioned": "2025-09-26", "decree": "290", "decree_date": "2023-09-07"}}, {"type": "Feature", "geometry": {"type": "Point", "coordinates": [37.5565, 47.1105]}, "properties": {"addr": "г. Мариуполь, пр-кт Металлургов, литера 10", "dev": "СЗ СУ-2007", "flats": 118, "living_sqm": 5397.36, "commissioned": "2025-11-07", "decree": "290", "decree_date": "2023-09-07"}}, {"type": "Feature", "geometry": {"type": "Point", "coordinates": [37.523, 47.0923]}, "properties": {"addr": "г. Мариуполь, пр-кт Строителей", "dev": "СЗ-1 ПОРФИР", "flats": 237, "living_sqm": 12829.3, "commissioned": "2025-11-27", "decree": "125", "decree_date": "2026-04-24"}}, {"type": "Feature", "geometry": {"type": "Point", "coordinates": [37.5224, 47.0933]}, "properties": {"addr": "г. Мариуполь, пр-кт Строителей, д. 70Б", "dev": "СЗ-1 ПОРФИР", "flats": 152, "living_sqm": 7538.6, "commissioned": "2025-11-27", "decree": "125", "decree_date": "2026-04-24"}}, {"type": "Feature", "geometry": {"type": "Point", "coordinates": [37.6689, 47.1005]}, "properties": {"addr": "г. Мариуполь, пр-кт Тульский, д. 158, литера Е", "dev": "СЗ ВЕРТИКАЛЬ НР-1", "flats": 141, "living_sqm": 7736.48, "commissioned": null, "decree": null, "decree_date": null}}, {"type": "Feature", "geometry": {"type": "Point", "coordinates": [37.5237, 47.097]}, "properties": {"addr": "г. Мариуполь, пр-кт Строителей", "dev": "СЗ ТЮС-НР1", "flats": 60, "living_sqm": 2315.0, "commissioned": null, "decree": null, "decree_date": null}}, {"type": "Feature", "geometry": {"type": "Point", "coordinates": [37.5557, 47.1065]}, "properties": {"addr": "г. Мариуполь, литера 12", "dev": "СЗ СУ-2007", "flats": 125, "living_sqm": 6921.05, "commissioned": "2025-12-29", "decree": "290", "decree_date": "2023-09-07"}}, {"type": "Feature", "geometry": {"type": "Point", "coordinates": [37.5274, 47.0908]}, "properties": {"addr": "г. Мариуполь, пл Бахчиванджи, д. 2, литера А", "dev": "СЗ ТЮС-НР1", "flats": 113, "living_sqm": 5780.8, "commissioned": "2026-04-28", "decree": null, "decree_date": null}}, {"type": "Feature", "geometry": {"type": "Point", "coordinates": [37.6698, 47.1006]}, "properties": {"addr": "г. Мариуполь, пр-кт Тульский, д. 158, литера Д", "dev": "СЗ ВЕРТИКАЛЬ НР-1", "flats": 175, "living_sqm": 9472.68, "commissioned": null, "decree": null, "decree_date": null}}, {"type": "Feature", "geometry": {"type": "Point", "coordinates": [37.5119, 47.1155]}, "properties": {"addr": "г. Мариуполь, ул Куприна, д. 77Б", "dev": "СЗ ОЛИМПСТРОЙ НР", "flats": 144, "living_sqm": 6136.82, "commissioned": null, "decree": "13", "decree_date": "2025-01-20"}}, {"type": "Feature", "geometry": {"type": "Point", "coordinates": [39.7095, 47.1452]}, "properties": {"addr": "Город Батайск, ул Лупырева, д. 12", "dev": "СЗ ЖИЛСТРОЙ", "flats": 94, "living_sqm": 4872.5, "commissioned": null, "decree": null, "decree_date": null}}, {"type": "Feature", "geometry": {"type": "Point", "coordinates": [37.5572, 47.1091]}, "properties": {"addr": "г. Мариуполь, пр-кт Металлургов, литера 24", "dev": "СЗ СУ-2007", "flats": 190, "living_sqm": 8584.52, "commissioned": "2025-12-29", "decree": "290", "decree_date": "2023-09-07"}}, {"type": "Feature", "geometry": {"type": "Point", "coordinates": [37.513, 47.116]}, "properties": {"addr": "г. Мариуполь, б-р Шевченко, д. 276а", "dev": "СЗ ОЛИМПСТРОЙ НР", "flats": 135, "living_sqm": 5799.0, "commissioned": null, "decree": "13", "decree_date": "2025-01-20"}}, {"type": "Feature", "geometry": {"type": "Point", "coordinates": [37.5172, 47.0954]}, "properties": {"addr": "г. Мариуполь, ул Зелинского", "dev": "СЗ КОРПОРАЦИЯ СМУ-5", "flats": 117, "living_sqm": 4907.15, "commissioned": null, "decree": "178", "decree_date": null}}, {"type": "Feature", "geometry": {"type": "Point", "coordinates": [37.5172, 47.0956]}, "properties": {"addr": "г. Мариуполь, ул Зелинского", "dev": "СЗ КОРПОРАЦИЯ СМУ-5", "flats": 201, "living_sqm": 8942.09, "commissioned": null, "decree": "178", "decree_date": null}}, {"type": "Feature", "geometry": {"type": "Point", "coordinates": [37.5137, 47.0863]}, "properties": {"addr": "г. Мариуполь, ул Зелинского", "dev": "СЗ КОРПОРАЦИЯ СМУ-5", "flats": 98, "living_sqm": 4015.01, "commissioned": null, "decree": "178", "decree_date": null}}, {"type": "Feature", "geometry": {"type": "Point", "coordinates": [37.5171, 47.0956]}, "properties": {"addr": "г. Мариуполь, ул Зелинского", "dev": "СЗ КОРПОРАЦИЯ СМУ-5", "flats": 98, "living_sqm": 4015.01, "commissioned": null, "decree": "178", "decree_date": null}}, {"type": "Feature", "geometry": {"type": "Point", "coordinates": [37.4866, 47.0812]}, "properties": {"addr": "г. Мариуполь", "dev": "СЗ ГСА ДЕВЕЛОПМЕНТ", "flats": 6, "living_sqm": 554.94, "commissioned": null, "decree": null, "decree_date": null}}, {"type": "Feature", "geometry": {"type": "Point", "coordinates": [37.5414, 47.0967]}, "properties": {"addr": "г. Мариуполь", "dev": "СЗ ГСА ДЕВЕЛОПМЕНТ", "flats": 7, "living_sqm": 647.43, "commissioned": null, "decree": null, "decree_date": null}}, {"type": "Feature", "geometry": {"type": "Point", "coordinates": [37.4885, 47.0789]}, "properties": {"addr": "г. Мариуполь", "dev": "СЗ ГСА ДЕВЕЛОПМЕНТ", "flats": 6, "living_sqm": 554.94, "commissioned": null, "decree": null, "decree_date": null}}, {"type": "Feature", "geometry": {"type": "Point", "coordinates": [37.5414, 47.0967]}, "properties": {"addr": "г. Мариуполь", "dev": "СЗ ГСА ДЕВЕЛОПМЕНТ", "flats": 7, "living_sqm": 647.43, "commissioned": null, "decree": null, "decree_date": null}}, {"type": "Feature", "geometry": {"type": "Point", "coordinates": [37.4866, 47.0812]}, "properties": {"addr": "г. Мариуполь", "dev": "СЗ ГСА ДЕВЕЛОПМЕНТ", "flats": 5, "living_sqm": 775.49, "commissioned": null, "decree": null, "decree_date": null}}, {"type": "Feature", "geometry": {"type": "Point", "coordinates": [37.4866, 47.0812]}, "properties": {"addr": "г. Мариуполь", "dev": "СЗ ГСА ДЕВЕЛОПМЕНТ", "flats": 5, "living_sqm": 775.49, "commissioned": null, "decree": null, "decree_date": null}}, {"type": "Feature", "geometry": {"type": "Point", "coordinates": [37.4866, 47.0812]}, "properties": {"addr": "г. Мариуполь", "dev": "СЗ ГСА ДЕВЕЛОПМЕНТ", "flats": 6, "living_sqm": 554.94, "commissioned": null, "decree": null, "decree_date": null}}, {"type": "Feature", "geometry": {"type": "Point", "coordinates": [37.4866, 47.0812]}, "properties": {"addr": "г. Мариуполь", "dev": "СЗ ГСА ДЕВЕЛОПМЕНТ", "flats": 7, "living_sqm": 647.43, "commissioned": null, "decree": null, "decree_date": null}}, {"type": "Feature", "geometry": {"type": "Point", "coordinates": [37.4866, 47.0812]}, "properties": {"addr": "г. Мариуполь", "dev": "СЗ ГСА ДЕВЕЛОПМЕНТ", "flats": 6, "living_sqm": 554.94, "commissioned": null, "decree": null, "decree_date": null}}, {"type": "Feature", "geometry": {"type": "Point", "coordinates": [37.4866, 47.0812]}, "properties": {"addr": "г. Мариуполь", "dev": "СЗ ГСА ДЕВЕЛОПМЕНТ", "flats": 7, "living_sqm": 647.43, "commissioned": null, "decree": null, "decree_date": null}}, {"type": "Feature", "geometry": {"type": "Point", "coordinates": [37.5627, 47.1118]}, "properties": {"addr": "г. Мариуполь, пр-кт Металлургов, литера 2", "dev": "СЗ СУ-2007", "flats": 207, "living_sqm": 11214.72, "commissioned": null, "decree": "290", "decree_date": "2023-09-07"}}, {"type": "Feature", "geometry": {"type": "Point", "coordinates": [37.5616, 47.1115]}, "properties": {"addr": "г. Мариуполь, пр-кт Металлургов, литера 3", "dev": "СЗ СУ-2007", "flats": 130, "living_sqm": 5806.36, "commissioned": null, "decree": "290", "decree_date": "2023-09-07"}}, {"type": "Feature", "geometry": {"type": "Point", "coordinates": [37.5282, 47.0947]}, "properties": {"addr": "р-н Жовтневый, ул Апатова, д. 129А", "dev": "СЗ ТЮС-НР2", "flats": 79, "living_sqm": 4576.18, "commissioned": null, "decree": null, "decree_date": null}}, {"type": "Feature", "geometry": {"type": "Point", "coordinates": [37.5188, 47.1121]}, "properties": {"addr": "г. Мариуполь, ул 50 лет СССР, д. 59а", "dev": "СЗ ОЛИМПСТРОЙ НР", "flats": 128, "living_sqm": 5079.84, "commissioned": null, "decree": "13", "decree_date": "2025-01-20"}}, {"type": "Feature", "geometry": {"type": "Point", "coordinates": [37.5547, 47.1051]}, "properties": {"addr": "г. Мариуполь, ул Артёма", "dev": "СЗ СК АЗОВСКИЙ БЕРЕГ", "flats": 128, "living_sqm": 4304.8, "commissioned": null, "decree": null, "decree_date": null}}, {"type": "Feature", "geometry": {"type": "Point", "coordinates": [37.5548, 47.1051]}, "properties": {"addr": "г. Мариуполь, ул Артёма", "dev": "СЗ СК АЗОВСКИЙ БЕРЕГ", "flats": 255, "living_sqm": 9844.8, "commissioned": null, "decree": null, "decree_date": null}}, {"type": "Feature", "geometry": {"type": "Point", "coordinates": [37.561, 47.1118]}, "properties": {"addr": "г. Мариуполь, пр-кт Металлургов, литера 23", "dev": "СЗ СУ-2007", "flats": 81, "living_sqm": 4146.57, "commissioned": null, "decree": "290", "decree_date": "2023-09-07"}}, {"type": "Feature", "geometry": {"type": "Point", "coordinates": [37.6371, 47.1115]}, "properties": {"addr": "г. Мариуполь, пр-кт 1 Мая, д. 62, корпус а", "dev": "СЗ ЭВОДОМ-5", "flats": 58, "living_sqm": 2608.29, "commissioned": null, "decree": "395", "decree_date": null}}, {"type": "Feature", "geometry": {"type": "Point", "coordinates": [37.636, 47.1114]}, "properties": {"addr": "г. Мариуполь, пер Лечебный, д. 11, корпус а", "dev": "СЗ ЭВОДОМ-5", "flats": 29, "living_sqm": 1302.1, "commissioned": null, "decree": "395", "decree_date": null}}, {"type": "Feature", "geometry": {"type": "Point", "coordinates": [37.6359, 47.111]}, "properties": {"addr": "г. Мариуполь, пер Лечебный, д. 9, корпус а", "dev": "СЗ ЭВОДОМ-5", "flats": 29, "living_sqm": 1301.78, "commissioned": null, "decree": "395", "decree_date": null}}, {"type": "Feature", "geometry": {"type": "Point", "coordinates": [37.5555, 47.1045]}, "properties": {"addr": "г. Мариуполь, ул Артёма", "dev": "СЗ СК АЗОВСКИЙ БЕРЕГ", "flats": 364, "living_sqm": 12828.5, "commissioned": null, "decree": null, "decree_date": null}}, {"type": "Feature", "geometry": {"type": "Point", "coordinates": [37.6152, 55.525]}, "properties": {"addr": "Поселок городского типа Боброво", "dev": "СЗ ЛОТАН", "flats": 299, "living_sqm": 13245.8, "commissioned": null, "decree": null, "decree_date": null}}, {"type": "Feature", "geometry": {"type": "Point", "coordinates": [37.5086, 47.0671]}, "properties": {"addr": "г. Мариуполь, пр-кт Лунина", "dev": "СЗ СК ПРОСПЕКТ", "flats": 258, "living_sqm": 9315.1, "commissioned": null, "decree": null, "decree_date": null}}, {"type": "Feature", "geometry": {"type": "Point", "coordinates": [37.5219, 47.0942]}, "properties": {"addr": "г. Мариуполь", "dev": "СЗ-1 ПОРФИР", "flats": 180, "living_sqm": 8468.4, "commissioned": null, "decree": "394", "decree_date": null}}, {"type": "Feature", "geometry": {"type": "Point", "coordinates": [37.522, 47.0944]}, "properties": {"addr": "г. Мариуполь", "dev": "СЗ-1 ПОРФИР", "flats": 180, "living_sqm": 8451.7, "commissioned": null, "decree": "393", "decree_date": null}}, {"type": "Feature", "geometry": {"type": "Point", "coordinates": [37.5208, 47.0945]}, "properties": {"addr": "г. Мариуполь", "dev": "СЗ-1 ПОРФИР", "flats": 108, "living_sqm": 4824.5, "commissioned": null, "decree": "392", "decree_date": null}}, {"type": "Feature", "geometry": {"type": "Point", "coordinates": [37.5111, 47.1135]}, "properties": {"addr": "г. Мариуполь, район Жовтневский, ул Куприна", "dev": "СЗ АНТАРЕС", "flats": 422, "living_sqm": 20460.27, "commissioned": null, "decree": "415", "decree_date": "2024-11-18"}}, {"type": "Feature", "geometry": {"type": "Point", "coordinates": [37.561, 47.1086]}, "properties": {"addr": "г. Мариуполь, ул Артёма, д. 134", "dev": "СЗ СК ВОЗРОЖДЕНИЕ", "flats": 434, "living_sqm": 15294.5, "commissioned": null, "decree": null, "decree_date": null}}, {"type": "Feature", "geometry": {"type": "Point", "coordinates": [37.5599, 47.1085]}, "properties": {"addr": "г. Мариуполь, ул Артёма, д. 132, литера А", "dev": "СЗ СК ВОЗРОЖДЕНИЕ", "flats": 434, "living_sqm": 15294.5, "commissioned": null, "decree": null, "decree_date": null}}, {"type": "Feature", "geometry": {"type": "Point", "coordinates": [37.5593, 47.1073]}, "properties": {"addr": "г. Мариуполь, б-р Шевченко, д. 71", "dev": "СЗ СК ВОЗРОЖДЕНИЕ", "flats": 164, "living_sqm": 5894.7, "commissioned": null, "decree": null, "decree_date": null}}, {"type": "Feature", "geometry": {"type": "Point", "coordinates": [37.5218, 47.0977]}, "properties": {"addr": "г. Мариуполь", "dev": "СЗ-1 ПОРФИР", "flats": 234, "living_sqm": 8771.6, "commissioned": null, "decree": "390", "decree_date": null}}, {"type": "Feature", "geometry": {"type": "Point", "coordinates": [37.521, 47.0961]}, "properties": {"addr": "г. Мариуполь", "dev": "СЗ-1 ПОРФИР", "flats": 126, "living_sqm": 4892.7, "commissioned": null, "decree": "391", "decree_date": null}}, {"type": "Feature", "geometry": {"type": "Point", "coordinates": [37.4848, 47.0656]}, "properties": {"addr": "г. Мариуполь, ул Латышева", "dev": "СЗ-1 ПОРФИР", "flats": 123, "living_sqm": 4996.2, "commissioned": null, "decree": "125", "decree_date": "2026-04-24"}}, {"type": "Feature", "geometry": {"type": "Point", "coordinates": [37.4883, 47.0659]}, "properties": {"addr": "г. Мариуполь", "dev": "СЗ-1 ПОРФИР", "flats": 121, "living_sqm": 4904.7, "commissioned": null, "decree": "125", "decree_date": "2026-04-24"}}, {"type": "Feature", "geometry": {"type": "Point", "coordinates": [37.5179, 47.0975]}, "properties": {"addr": "г. Мариуполь, ул Зелинского", "dev": "СЗ-1 ПОРФИР", "flats": 273, "living_sqm": 12354.4, "commissioned": null, "decree": "163", "decree_date": "2026-05-14"}}, {"type": "Feature", "geometry": {"type": "Point", "coordinates": [37.5182, 47.0981]}, "properties": {"addr": "г. Мариуполь, ул Зелинского", "dev": "СЗ-1 ПОРФИР", "flats": 178, "living_sqm": 7708.0, "commissioned": null, "decree": "164", "decree_date": "2026-05-14"}}, {"type": "Feature", "geometry": {"type": "Point", "coordinates": [37.5172, 47.0976]}, "properties": {"addr": "г. Мариуполь, ул Зелинского", "dev": "СЗ-1 ПОРФИР", "flats": 128, "living_sqm": 5112.9, "commissioned": null, "decree": "162", "decree_date": "2026-05-14"}}, {"type": "Feature", "geometry": {"type": "Point", "coordinates": [37.543, 47.0974]}, "properties": {"addr": "г. Мариуполь, пр-кт Металлургов, д. 54А", "dev": "СЗ РКС-ДЕВЕЛОПМЕНТ", "flats": 122, "living_sqm": 5822.71, "commissioned": "2024-12-23", "decree": "291", "decree_date": "2023-09-07"}}, {"type": "Feature", "geometry": {"type": "Point", "coordinates": [37.5126, 47.0761]}, "properties": {"addr": "г. Мариуполь, пер Черноморский, д. 1Б", "dev": "СЗ-1 ПОРФИР", "flats": 51, "living_sqm": 2324.2, "commissioned": "2023-12-29", "decree": "289", "decree_date": "2023-09-07"}}, {"type": "Feature", "geometry": {"type": "Point", "coordinates": [37.6303, 47.1084]}, "properties": {"addr": "г. Мариуполь, ул Миклухо-Маклая", "dev": "СЗ ЭВОДОМ-5", "flats": 78, "living_sqm": 3065.32, "commissioned": null, "decree": "395", "decree_date": null}}, {"type": "Feature", "geometry": {"type": "Point", "coordinates": [37.6901, 47.125]}, "properties": {"addr": "г. Мариуполь, пр-кт Маршала Жукова, д. 90Б", "dev": "СЗ РСК", "flats": 249, "living_sqm": 11066.95, "commissioned": null, "decree": "339", "decree_date": "2024-09-02"}}, {"type": "Feature", "geometry": {"type": "Point", "coordinates": [37.5121, 47.1136]}, "properties": {"addr": "г. Мариуполь, ул Куприна", "dev": "СЗ СИРИУС БИЛД", "flats": 86, "living_sqm": 3605.6, "commissioned": null, "decree": "414", "decree_date": "2024-11-18"}}, {"type": "Feature", "geometry": {"type": "Point", "coordinates": [37.5266, 47.092]}, "properties": {"addr": "г. Мариуполь, б-р Богдана Хмельницкого", "dev": "СЗ-1 ПОРФИР", "flats": 192, "living_sqm": 8304.9, "commissioned": "2026-04-09", "decree": "125", "decree_date": "2026-04-24"}}, {"type": "Feature", "geometry": {"type": "Point", "coordinates": [37.5263, 47.093]}, "properties": {"addr": "г. Мариуполь, ул Богдана Хмельницкого", "dev": "СЗ-1 ПОРФИР", "flats": 224, "living_sqm": 9426.4, "commissioned": "2026-05-20", "decree": "125", "decree_date": "2026-04-24"}}, {"type": "Feature", "geometry": {"type": "Point", "coordinates": [37.5268, 47.0928]}, "properties": {"addr": "г. Мариуполь, б-р Богдана Хмельницкого", "dev": "СЗ-1 ПОРФИР", "flats": 208, "living_sqm": 8773.7, "commissioned": "2026-05-20", "decree": "125", "decree_date": "2026-04-24"}}, {"type": "Feature", "geometry": {"type": "Point", "coordinates": [37.5094, 47.121]}, "properties": {"addr": "г. Мариуполь, ул Солнечная", "dev": "СЗ СОЛНЕЧНАЯ", "flats": 182, "living_sqm": 8693.04, "commissioned": null, "decree": "218", "decree_date": null}}, {"type": "Feature", "geometry": {"type": "Point", "coordinates": [37.5066, 47.1193]}, "properties": {"addr": "г. Мариуполь", "dev": "СЗ СОЛНЕЧНАЯ", "flats": 472, "living_sqm": 20391.22, "commissioned": null, "decree": "218", "decree_date": null}}, {"type": "Feature", "geometry": {"type": "Point", "coordinates": [37.5074, 47.1191]}, "properties": {"addr": "г. Мариуполь", "dev": "СЗ СОЛНЕЧНАЯ", "flats": 110, "living_sqm": 4543.87, "commissioned": null, "decree": "218", "decree_date": null}}, {"type": "Feature", "geometry": {"type": "Point", "coordinates": [37.508, 47.1187]}, "properties": {"addr": "г. Мариуполь", "dev": "СЗ СОЛНЕЧНАЯ", "flats": 88, "living_sqm": 4703.24, "commissioned": null, "decree": "218", "decree_date": null}}, {"type": "Feature", "geometry": {"type": "Point", "coordinates": [37.5086, 47.1181]}, "properties": {"addr": "г. Мариуполь", "dev": "СЗ СОЛНЕЧНАЯ", "flats": 88, "living_sqm": 4539.58, "commissioned": null, "decree": "218", "decree_date": null}}, {"type": "Feature", "geometry": {"type": "Point", "coordinates": [37.5635, 47.1113]}, "properties": {"addr": "г. Мариуполь, пр-кт Металлургов, литера 1", "dev": "СЗ СУ-2007", "flats": 255, "living_sqm": 11711.82, "commissioned": null, "decree": "290", "decree_date": "2023-09-07"}}, {"type": "Feature", "geometry": {"type": "Point", "coordinates": [37.5563, 47.1088]}, "properties": {"addr": "г. Мариуполь, пр-кт Металлургов, литера 22", "dev": "СЗ СУ-2007", "flats": 170, "living_sqm": 8861.71, "commissioned": null, "decree": "290", "decree_date": "2023-09-07"}}, {"type": "Feature", "geometry": {"type": "Point", "coordinates": [37.5528, 47.1267]}, "properties": {"addr": "г. Мариуполь, ул Покрышкина, литера 2", "dev": "СЗ СУ-2007 ИНВЕСТ", "flats": 280, "living_sqm": 15481.68, "commissioned": null, "decree": "334", "decree_date": "2025-10-01"}}, {"type": "Feature", "geometry": {"type": "Point", "coordinates": [37.5546, 47.1263]}, "properties": {"addr": "г. Мариуполь, ул Покрышкина, литера 3", "dev": "СЗ СУ-2007 ИНВЕСТ", "flats": 280, "living_sqm": 15481.68, "commissioned": null, "decree": "334", "decree_date": "2025-10-01"}}, {"type": "Feature", "geometry": {"type": "Point", "coordinates": [37.5551, 47.1069]}, "properties": {"addr": "г. Мариуполь, пр-кт Металлургов, литера 18", "dev": "СЗ СУ-2007", "flats": 117, "living_sqm": 6425.29, "commissioned": null, "decree": "290", "decree_date": "2023-09-07"}}, {"type": "Feature", "geometry": {"type": "Point", "coordinates": [37.5197, 47.0929]}, "properties": {"addr": "г. Мариуполь, ул Зелинского", "dev": "СЗ КОРПОРАЦИЯ СМУ-5", "flats": 207, "living_sqm": 9035.93, "commissioned": null, "decree": "178", "decree_date": null}}, {"type": "Feature", "geometry": {"type": "Point", "coordinates": [37.5196, 47.0929]}, "properties": {"addr": "г. Мариуполь, ул Зелинского", "dev": "СЗ КОРПОРАЦИЯ СМУ-5", "flats": 108, "living_sqm": 5109.94, "commissioned": null, "decree": "178", "decree_date": null}}]}