{"type": "FeatureCollection", "features": [{"type": "Feature", "geometry": {"type": "Point", "coordinates": [37.63904, 47.10671]}, "properties": {"ua": "просп. Перемоги, 47", "ua_doc": null, "ru": "проспект Победы, 47", "soviet": null, "latin": "prosp. Peremohy, 47", "renamed": null, "types": "Магазин", "district": "Орджоникидзевский"}}, {"type": "Feature", "geometry": {"type": "Point", "coordinates": [37.60591, 47.15013]}, "properties": {"ua": null, "ua_doc": null, "ru": "улица Мамина-Сибиряка, 47", "soviet": null, "latin": "vul. Mamyna-Sybyriaka, 47", "renamed": null, "types": "НТО", "district": "Ильичевский"}}, {"type": "Feature", "geometry": {"type": "Point", "coordinates": [37.51663, 47.09688]}, "properties": {"ua": null, "ua_doc": null, "ru": "улица Зелинского, 89", "soviet": null, "latin": "vul. Zelyns'koho, 89", "renamed": null, "types": "Кафе; Киоск; Кафетерий", "district": "Жовтневый"}}, {"type": "Feature", "geometry": {"type": "Point", "coordinates": [37.51641, 47.08552]}, "properties": {"ua": null, "ua_doc": null, "ru": "проспект Строителей, 32", "soviet": null, "latin": "prosp. Budivel'nykiv, 32", "renamed": null, "types": "Недострой", "district": "Жовтневый"}}, {"type": "Feature", "geometry": {"type": "Point", "coordinates": [37.58904, 47.13611]}, "properties": {"ua": "просп. Никопольский, 52", "ua_doc": null, "ru": "проспект Ильича, 52", "soviet": "просп. Ильича", "latin": "prosp. Nykopol's'kyi, 52", "renamed": "Occupation reverted this street to its pre-2016 Soviet-era name: “просп. Ильича”.", "types": "Магазин", "district": "Ильичевский"}}]}